X,Y,Location,Road,Area,City,District,Province
74.18089986,32.1738532,Government Comprehensive High School,",",Model Town,Gujranwala,District Gujranwala,Punjab
74.18539524,32.1724715,city tour bus stop Gt road,GT Road,Model Town,Gujranwala,District Gujranwala,Punjab
74.1851002,32.17249931,Pakistan Cargo Services,",",Model Town,Gujranwala,District Gujranwala,Punjab
74.18486651,32.17259779,Citi Bank,",",",",Gujranwala,District Gujranwala,Punjab
74.17945649,32.1727709,Model Town Market,",",",",Gujranwala,District Gujranwala,Punjab
74.17867597,32.17357857,Model Town Park,",",",",Gujranwala,District Gujranwala,Punjab
74.17895157,32.17110843,Ladies Park Model Town,",",",",Gujranwala,District Gujranwala,Punjab
74.17770971,32.17057659,WASA water Tank Model  colony,",",",",Gujranwala,District Gujranwala,Punjab
74.17673137,32.17234691,Igraphix Designers & Printers,",",",",Gujranwala,District Gujranwala,Punjab
74.17656507,32.1732244,Jinnah Memorial Trust Hospital,Cemetery Rd,",",Gujranwala,District Gujranwala,Punjab
74.17427178,32.17578019,Model Town Cemetery,",",Model Town,Gujranwala,District Gujranwala,Punjab
74.17560317,32.17763754,Sheesh Mahal Marriage Hall,Jinnah Road,Industrial Estate,Gujranwala,District Gujranwala,Punjab
74.17509791,32.17822184,Gujranwala Food Industries Ltd. (JOJO Foods),Jinnah Rd,",",Gujranwala,District Gujranwala,Punjab
74.17477068,32.17816054,SUPER MILLAT FANS INDUSTRY,75 Jinnah Rd,",",Gujranwala,District Gujranwala,Punjab
74.17444881,32.17802319,Kohinoor Hi-Tech (PVT) Ltd,Jinnah Road,",",Gujranwala,District Gujranwala,Punjab
74.18041673,32.18702302,Paracha Center,",",",",Gujranwala,District Gujranwala,Punjab
74.18005228,32.1873218,State Life Insurance,Service Road Main G.T Road,",",Gujranwala,District Gujranwala,Punjab
74.17901125,32.18793952,Shelton Hotel,G.T. Road,",",Gujranwala,District Gujranwala,Punjab
74.17353954,32.1881319,WAPDA Grid Station,",",Barkat Colony,Gujranwala,District Gujranwala,Punjab
74.19841904,32.20485261,Aftkhar Market,Garden Town,",",Gujranwala,District Gujranwala,Punjab
74.20692567,32.21209615,Marketing Circle,Professor's colony,",",Gujranwala,District Gujranwala,Punjab
74.21071026,32.21073849,APPLE Furniture,Aroop Raod Maafi Wala Chowk,",",Gujranwala,District Gujranwala,Punjab
74.21444926,32.21806609,Veterinary Clinic,Aroop,",",Gujranwala,District Gujranwala,Punjab
74.21932016,32.21962786,Bus Station Aroop,Aroop Mor Road,",",Gujranwala,District Gujranwala,Punjab
74.21994913,32.22222376,Darbar Hazrat Khawaja Barkat Ali Chishti Sabri,Aroop Mor Rd,Aroop,Gujranwala,District Gujranwala,Punjab
74.22545101,32.21152086,Rahim Oil Mills,Aroop Mor,",",Gujranwala,District Gujranwala,Punjab
74.22655273,32.21235202,Basic Health Center,Sialkot Rd Aroop Mor,",",Gujranwala,District Gujranwala,Punjab
74.21554763,32.19643221,Cash and Carry,Sialkot Rd,",",Gujranwala,District Gujranwala,Punjab
74.21492871,32.19706717,GTDMC Mosque,Sialkot Rd,",",Gujranwala,District Gujranwala,Punjab
74.22251668,32.19801081,Cemetery,Waniawala Rd,",",Gujranwala,District Gujranwala,Punjab
74.22160003,32.20014148,Sardar Town,Sialkot Rd,",",Gujranwala,District Gujranwala,Punjab
74.23058745,32.20422508,Agriculture Adaptive Research Station,",",",",Gujranwala,District Gujranwala,Punjab
74.22838803,32.18562186,Bricks Kiln,Mukhtar Colony,",",Gujranwala,District Gujranwala,Punjab
74.22270175,32.17988532,Bricks Klin Industry,Sialkot Bypass,",",Gujranwala,District Gujranwala,Punjab
74.22534909,32.17859188,Mian Agro Engineering,Sialkot Chowk,",",Gujranwala,District Gujranwala,Punjab
74.22485556,32.17786996,Expert Technical Services,Sialkot Bypass,",",Gujranwala,District Gujranwala,Punjab
74.20609619,32.18305726,Post Office,slampura,",",Gujranwala,District Gujranwala,Punjab
74.20602713,32.18213276,Javed Surgical Steel Furniture,Gulzar colony Sialkot Road,",",Gujranwala,District Gujranwala,Punjab
74.20323428,32.17470522,Jamia Masjid Anwaar-i-Mustafa,Mohalla Kashmir Park,",",Gujranwala,District Gujranwala,Punjab
74.20295868,32.17320624,Infotech,Main Bazar Khokharki Near Jama Masjid Manier Wali,",",Gujranwala,District Gujranwala,Punjab
74.21114411,32.17547484,Khokhar Ke Graveyard,Aziz Colony,",",Gujranwala,District Gujranwala,Punjab
74.21297874,32.17467116,Nursar Graveyard,Fazal Town,",",Gujranwala,District Gujranwala,Punjab
74.20674294,32.16142783,Cricket Ground,Block-C,",",Gujranwala,District Gujranwala,Punjab
74.2060687,32.16192652,YouthAffairs Pakistan,201 Old Morgue Rd,",",Gujranwala,District Gujranwala,Punjab
74.20564223,32.16370836,Khwaja Ground,C Block Satellite Town,",",Gujranwala,District Gujranwala,Punjab
71.514266,33.99412,Bacha Khan International Airport,",",Tahkal ,Peshawar,",",","
73.2,34.333333,Mansehra Airport ,",",",",",",",",","
71.518943,33.98985,Airport Terminal Peshawar,",",",", Peshawar ,",",","
73.099691,33.608836,PIA Aerospace Maintenance,",",",",Rawalpindi,",",","
73.79915714,33.84799969,Rawalakot Airport,",",",",",",",",","
73.80473614,33.84978177,Chak Helicopter Pad ,",",",",Rawalakot ,",",","
74.404444,31.521389,Allama Iqbal International Airport,",",",",Lahore,",",Punjab
70.887802,31.91107,Dera Ismail Khan Airport,",",",",",",",",Khyber-Pakhtunkhwa
72.98757,31.363043,Faisalabad International Airport,Airport Rd,",",",",",",Punjab
71.71111107,29.34813994,Bahawalpur Airport,",",",",Bahawalpur,",",Punjab
71.41502292,30.19961827,Multan International Airport ,Rashid Road,",",Multan,",",Punjab
73.25,30,Bahawalnagar Airport,",",",",",",Bahawalnagar District,Punjab
70.28636,28.391911,Shaikh Zayed International Airport,Airport Rd,",",Rahim Yar Khan,",",Punjab
67.16816,24.900457,Jinnah International Airport,",",",",Karachi,",",Sindh
70.519458,32.972978,Bannu Airport,Miran Shah Rd,",",",",",",Khyber-Pakhtunkhwa
71.458333,32.424444,Chashma Airport,Chashma Rd,",",",",",",Punjab
74.086922,35.426815,Chilas Airport,",",",",Chilas,",",","
71.799722,35.886111,Chitral Airport,",",",",Chitral,",", Khyber-Pakhtunkhwa
64.401564,28.874271,Dalbandin Airport,",",",",",",",",Balochistan 
70.488335,29.961085,Dera Ghazi Khan Airport,",",",",",",",",Punjab
74.33224,35.91972,Gilgit Airport,",",",",",",",",","
74.07444,32.623056,Gujrat Airport,",",",",",",",",Punjab
62.329444,25.233056,Gwadar International Airport,",",",",",",",",Balochistan 
68.366346,25.318126,Hyderabad Airport,",",",",",",",",Sindh
73.100405,33.607891,Benazir Bhutto International Airport, ,Chaklala,Rawalpindi,",",","
72.851614,33.560714,New Benazir Bhutto International Airport,",",",",Rawalpindi/Islamaabd,",",","
68.459132,28.284297,Jacobabad Airport,",",PAF Base Shahbaz,Jacobabad,",",Sindh
61.804359,25.070173,Jiwani Airport,",",Jiwani Tehsil,",",",",Belutschistan
69.153475,27.199244,Kadanwari Airport,Kadanwari Rd,",",Kadanwari ,",",Sindh
66.639285,27.796969,Khuzdar Airport,",",",",Khuzdar,",",Balochistan
74.346332,31.494056,Walton Airport,",",",",Lahore,",",Punjab
73.632326,33.054335,Mangla Airport,",",",",Jhelum,",",Punjab
68.142778,27.335,Moenjodaro Airport,",",",",",",",",Sindh
73.505836,34.341389,Muzaffarabad Airport ,Chakothi Rd,",",Kashmir,",",","
68.39222,26.219723,Nawabshah Airport,"Airport Rd, Shaheed Benazir Abad",",",",",",",Sindh
64.586111,25.274722,Ormara Airport,Ormara Airport Rd,",",Ormara,",",Balochistan
64.134036,26.954051,Panjgur Airport,Airport Road,",",Panjgur,",",Belutschistan
70.071527,33.90237,Parachinar Airport,",",Kurram Valley,",",",",FATA
63.343191,25.290411,Pasni Airport,",",",",Pasni,",",Belutschistan
66.948782,30.249012,Quetta International Airport,",",",",Quetta,",",Belutschistan
74.363889,32.535556,Sialkot International Airport,",",",",",",Sialkot District,Punjab
68.87879759,26.96687331,Sawan Airport,",",",",",","Khairpur District,",Sindh
72.351387,34.813332,Saidu Sharif Airport,",",Kanju,",",",",Khyber Pakhtunkhwa
67.717222,26.473056,Sehwan Sharif Airport, ,",",",",Dadu District,Sindh
67.843102,29.574481,Sibi Airport,Airport Road,",",Sibi,",", Belutschistan
69.07765,25.686798,Sindhri/Mirpur Khas Airport,",",",",",",Sanghar District,Sindh
69.176917,28.645142,Sui Airport,",",",", Sui,",",Belutschistan
68.795655,27.723087,Sukkur Airport,",",",",Sukkur,",",Sindh
72.609301,33.981427,Tarbela Dam Airport,",",",", Haripur,",",Khyber Pakhtunkhwa
63.029522,25.987272,Turbat International Airport,",",",",Turbat,",",Belutschistan
69.46337,31.35586,Zhob Airport,",",Zhob Tehsil,",",",",Belutschistan
73.790278,32.077778,Chandhar Airbase,",",Hafizabad Tehsil,",",",",Punjab 
73.604806,32.878684,Gurha Salim Airport,",",",",Jhelum,",",Punjab
72.400833,33.868889,Minhas Airbase,",",Kamra,",",",",Punjab
67.115973,24.88391,Faisal Airbase,",",",",karachi,",",Sindh
74.17286362,32.1895143,Filezooby - A way to success Platform,Street#10Atta Muhammad Road,Mohalla Shaheenabad,Gujranwala,District Gujranwala,Punjab
74.17808052,32.19010902,Gulshan Iqbal Park,Siddiqui St,",",Gujranwala,District Gujranwala,Punjab
74.17929556,32.19152657,Ghani Paya,Service Rd,",",Gujranwala,District Gujranwala,Punjab
74.17927142,32.19176036,Honda Autos,Service Rd,",",Gujranwala,District Gujranwala,Punjab
74.17985614,32.19120651,Siddiqui Stop,GT Road,",",Gujranwala,District Gujranwala,Punjab
74.17857137,32.19237493,Afzal Electronic shaheen abad branch,Mustafa Colony,",",Gujranwala,District Gujranwala,Punjab
74.17881813,32.19289246,Perfect E Academy,Main Bazaar Near Sercice Road,",",Gujranwala,District Gujranwala,Punjab
74.17888284,32.19320144,Sufi Biryani,Service Rd,",",Gujranwala,District Gujranwala,Punjab
74.1788369,32.19332429,Makkah Biryani,Service Rd,",",Gujranwala,District Gujranwala,Punjab
74.17869542,32.19387813,Madina Tikka Shop & Chargha House,N5,Shaheenabad Climaxabad,Gujranwala,District Gujranwala,Punjab
74.17648528,32.19282096,Ideal Computer and Graphics,Mustafa Colony Shop-30 Super Mobile Market,",",Gujranwala,District Gujranwala,Punjab
74.17610642,32.19710122,The Climax Engineering Co. Ltd.,GT Road,",",Gujranwala,District Gujranwala,Punjab
74.17741265,32.19793875,Climax Town Mosque,Service Rd,",",Gujranwala,District Gujranwala,Punjab
74.1769674,32.19892096,Swidish Institute of Technology,Gujranwala,",",Gujranwala,District Gujranwala,Punjab
74.17642828,32.20055513,Sharp Industry,Service Rd,",",Gujranwala,District Gujranwala,Punjab
74.17583015,32.20233792,PSO Filling Station,G.T. Rd,",",Gujranwala,District Gujranwala,Punjab
74.18289576,32.19986969,Gavreyard,Bilal Town,",",Gujranwala,District Gujranwala,Punjab
74.18434348,32.19885798,Fatmiya Masjid,Bilal Town,",",Gujranwala,District Gujranwala,Punjab
74.18917347,32.20149022,Board of Intermediate & Secondary Education,Faiz Alam Town,",",Gujranwala,District Gujranwala,Punjab
74.19014845,32.20211096,BISEGRW Cricket Ground,",",",",Gujranwala,District Gujranwala,Punjab
74.19513401,32.20245538,Comfort Engineers,Opp. Royal Garden Hotel Siddiqui Street Sialkot Bypass,",",Gujranwala,District Gujranwala,Punjab
74.19426765,32.20408664,Royal Garden Hotel,Sialkot Bypass,",",Gujranwala,District Gujranwala,Punjab
74.19447687,32.20344435,Royal Garden Mosque,Sialkot Bypass,",",Gujranwala,District Gujranwala,Punjab
74.19426765,32.20512326,K.K. Chicks Poultary,Sialkot Bypass,",",Gujranwala,District Gujranwala,Punjab
74.19683654,32.20372294,Gold Star Factory,Sialkot Bypass,",",Gujranwala,District Gujranwala,Punjab
73.8146013,32.26570809,Saddat Imam Bargah,Main Bazar,",",Ali Pur Chatha,District Gujranwala,Punjab
73.81410778,32.2657353,Jamia Masjid Usman-e-Ghani,Main Bazar,",",Ali Pur Chatha,District Gujranwala,Punjab
73.79649639,32.26874678,Fish Farm,Mandi Bahudin-Gujranwala Rd,",",Ali Pur Chatha,District Gujranwala,Punjab
73.78997326,32.27589508,Sarwala Village,",",",",",",District Gujranwala,Punjab
73.82276059,32.26783959,Mohalla Islamabad,Gujranwala Rd,",",Ali Pur Chatha,District Gujranwala,Punjab
73.83108616,32.26482768,Inton Wala Bhatta,Gujranwala Rd,",",Ali Pur Chatha,District Gujranwala,Punjab
73.90399933,32.25306275,Verpal Chatha,Gujranwala-Ali Pur Chatha Rd,",",",",District Gujranwala,Punjab
73.93846035,32.2522478,Mariyamabad,Gujranwala-Ali Pur Chatha Rd,",",",",District Gujranwala,Punjab
73.97094727,32.24963131,Dehla Chatha,Gujranwala-Ali Pur Chatha Rd,",",",",District Gujranwala,Punjab
73.9883709,32.24672767,Islamia Public School,Kalaske Rd,Gujranwala Rd,Dehla Chatha,District Gujranwala,Punjab
74.18170452,32.18990088,Senior School,G.T Rd,Quaid-i-Azam Divisional Public School,Gujranwala,District Gujranwala,Punjab
74.18280296,32.18627824,Junior School,G.T Rd,Quaid-i-Azam Divisional Public School,Gujranwala,District Gujranwala,Punjab
74.18464832,32.18641444,Girls College,D C Rd,Quaid-i-Azam Divisional Public School,Gujranwala,District Gujranwala,Punjab
74.18043189,32.18701372,Shama Cinema,G.T Rd,",",Gujranwala,District Gujranwala,Punjab
74.18006711,32.18730428,State Life Insurance,G.T Rd,",",Gujranwala,District Gujranwala,Punjab
74.17903714,32.18793079,Shelton Hotel,G.T Rd,",",Gujranwala,District Gujranwala,Punjab
74.18807745,32.18564819,District Sui Gas Office,Sui Gas Rd,Ehtsham Colony,Gujranwala,District Gujranwala,Punjab
74.18862998,32.18491724,Haris Medical Complex,Sui Gas Rd,Ehtsham Colony,Gujranwala,District Gujranwala,Punjab
74.18808818,32.18602357,Sui Northern Gas Pipe Lines Ltd,Sui Gas Rd,Ehtsham Colony,Gujranwala,District Gujranwala,Punjab
74.19030637,32.18775444,Qabarustan,",",Ehtsham Colony,Gujranwala,District Gujranwala,Punjab
74.19108152,32.18237022,Adil Hospital,D C Rd,Lalazar Colony,Gujranwala,District Gujranwala,Punjab
74.1905129,32.18478558,Mobilink Tower,Jinah Rd,",",Gujranwala,District Gujranwala,Punjab
74.18834567,32.18454949,HFC,Jinah Rd,",",Gujranwala,District Gujranwala,Punjab
74.19299126,32.18880719,Fatomand,Jinah Rd,",",Gujranwala,District Gujranwala,Punjab
74.19676781,32.18575633,Chah Gory Wala,Jinah Rd,",",Gujranwala,District Gujranwala,Punjab
74.18921471,32.18898878,Ehtsham Colony,Sui Gas Rd,",",Gujranwala,District Gujranwala,Punjab
74.19964314,32.18887982,Imran Colony,Kacha Fatomand Rd,",",Gujranwala,District Gujranwala,Punjab
74.19084549,32.18364972,Lalazar Colony,Jinah Rd,",",Gujranwala,District Gujranwala,Punjab
74.19878483,32.18299099,Raja Bazar,Kacha Fatomand Rd,",",Gujranwala,District Gujranwala,Punjab
74.19096351,32.18300667,Raja Bazar,D C Rd,",",Gujranwala,District Gujranwala,Punjab
74.20391321,32.18542449,Muhalla Quaid-e-Azam,Kacha Fatomand Rd,",",Gujranwala,District Gujranwala,Punjab
74.20700312,32.18446695,Passport Office,Sialkot Rd,Islam Pura,Gujranwala,District Gujranwala,Punjab
74.21058655,32.18542944,Islam Pura,Sialkot Rd,",",Gujranwala,District Gujranwala,Punjab
74.20612335,32.18305042,Post Office,Sialkot Rd,Islam Pura,Gujranwala,District Gujranwala,Punjab
74.20603752,32.18212422,Javed Surgical Steel Furniture,Sialkot Rd,Gulzar colony,Gujranwala,District Gujranwala,Punjab
74.20449257,32.17986729,Christian's Graveyard,Sialkot Rd,Gulzar colony,Gujranwala,District Gujranwala,Punjab
74.20114517,32.17612597,Bashir Hospital,Sialkot Rd,Islam Colony,Gujranwala,District Gujranwala,Punjab
74.20329094,32.17717937,Government Girls School,Sialkot Rd,Mohalla Kashmir Park,Gujranwala,District Gujranwala,Punjab
74.20410633,32.17565376,Mohalla Kashmir Park,Sialkot Rd,",",Gujranwala,District Gujranwala,Punjab
74.2084837,32.17492727,Abid Colony,",",",",Gujranwala,District Gujranwala,Punjab
74.21118736,32.17543581,Khokhar Ke Qabarustan,Beeta Street,Aziz Colony,Gujranwala,District Gujranwala,Punjab
74.21301126,32.17469115,Nursar Qabarustan,",",Fazal Colony,Gujranwala,District Gujranwala,Punjab
74.20322657,32.17469115,Jamia Masjid Anwaar-i-Mustafa,",",",",Gujranwala,District Gujranwala,Punjab
74.20465981,32.17366847,Khokhar Ke,",",",",Gujranwala,District Gujranwala,Punjab
74.20047556,32.17029017,St. Joseph's Urdu High School,Sialkot Rd,Abu Bakar Town,Gujranwala,District Gujranwala,Punjab
74.20747519,32.1715358,Government Sir Syed Girls High School,",",Popular Nursery Town,Gujranwala,District Gujranwala,Punjab
74.20408487,32.1702231,Sharif Colony,Delta Rd,",",Gujranwala,District Gujranwala,Punjab
74.19957876,32.1681343,Punjab College of Information Technology,Circular Rd,",",Gujranwala,District Gujranwala,Punjab
74.19741154,32.16975085,Session Court,",",Civil Lines,Gujranwala,District Gujranwala,Punjab
74.19524431,32.17260246,Chatha Hospital,Hospital Rd,Chatha Colony,Gujranwala,District Gujranwala,Punjab
74.19675708,32.17180329,The Educators,",",Chatha Colony,Gujranwala,District Gujranwala,Punjab
74.1952014,32.17185778,Punjab College for Women,",",Chatha Colony,Gujranwala,District Gujranwala,Punjab
74.1957593,32.17249348,Dr. Nabila Bashir Hospital,",",Chatha Colony,Gujranwala,District Gujranwala,Punjab
74.19755638,32.17279771,Girls Hostel for Christian School & College,Church Rd,",",Gujranwala,District Gujranwala,Punjab
74.19946074,32.17342515,Church,Church Rd Sialkot Rd,",",Gujranwala,District Gujranwala,Punjab
74.19823766,32.17437414,Christian Technical Training Center,Church Rd,",",Gujranwala,District Gujranwala,Punjab
74.19689119,32.17522323,Boys Hostel for Christian School & College,",",",",Gujranwala,District Gujranwala,Punjab
74.19550717,32.17501436,City Sports Complex,Hospital Rd,",",Gujranwala,District Gujranwala,Punjab
74.19163942,32.16957417,DHQ Hospital,Hospital Rd,Civil Lines,Gujranwala,District Gujranwala,Punjab
74.19163942,32.16714024,Munir Chowk,Hospital Rd,",",Gujranwala,District Gujranwala,Punjab
74.19517994,32.16617755,DCO Office,Sialkot Rd,",",Gujranwala,District Gujranwala,Punjab
74.19729352,32.16790312,Shell Pump,Sialkot Rd,",",Gujranwala,District Gujranwala,Punjab
74.19734716,32.16761704,Gujranwala College of Commerce,Sialkot Rd,",",Gujranwala,District Gujranwala,Punjab
74.19630647,32.16773511,Excise & Taxation Office,Sialkot Rd,",",Gujranwala,District Gujranwala,Punjab
74.1957593,32.16865196,Punjab College of Commerce,Session Court Rd,",",Gujranwala,District Gujranwala,Punjab
74.19493854,32.16810705,Chemma Heart Complex,Zia-ul-Haq Rd,",",Gujranwala,District Gujranwala,Punjab
74.19380128,32.16902431,Punjab College for Women Campus I,Zia-ul-Haq Rd,Highway Officers Colony,Gujranwala,District Gujranwala,Punjab
74.19227242,32.16904702,DHQ Parking,",",DHQ Hospital,Gujranwala,District Gujranwala,Punjab
74.19303417,32.16853926,Punjab Employees Social Security Institution,",",Highway Officers Colony,Gujranwala,District Gujranwala,Punjab
74.19298589,32.17047367,Al Mudabbir School,Hospital Rd,",",Gujranwala,District Gujranwala,Punjab
74.19449866,32.17080969,Dr. Rashida Ch. Hospital & Maternity,Hospital Rd,",",Gujranwala,District Gujranwala,Punjab
74.19332922,32.17267139,Circuit House,Hospital Rd,Civil Lines,Gujranwala,District Gujranwala,Punjab
74.18813646,32.17488723,Passport Office,Bukhari rd,",",Gujranwala,District Gujranwala,Punjab
74.18714941,32.17639469,Railway Station,",",",",Gujranwala,District Gujranwala,Punjab
74.18292761,32.1739985,Trust Plaza,",",Model Town,Gujranwala,District Gujranwala,Punjab
74.07330036,32.40527175,Wadla Cheema Stop,Rasul Nagar-Wazirabad Rd,",",",",District Gujranwala,Punjab
74.07235622,32.41103254,Wadla Cheema,",",",",",",District Gujranwala,Punjab
74.06767845,32.40063059,Phaloki Stop,Rasul Nagar-Wazirabad Rd,",",",",District Gujranwala,Punjab
74.06149864,32.41023219,Phaloki,",",",",",",District Gujranwala,Punjab
74.05785084,32.4120437,Phaloki Qabrustan,",",",",",",District Gujranwala,Punjab
74.06948089,32.40171103,Plastic Factory,Rasul Nagar-Wazirabad Rd,Near Phaloki Stop,",",District Gujranwala,Punjab
74.04847383,32.38335668,Gunian Wala Police Station,Rasul Nagar-Wazirabad Rd,",",Gunian Wala,District Gujranwala,Punjab
74.04787302,32.38332044,Engro Fuel Station,Rasul Nagar-Wazirabad Rd,",",Gunian Wala,District Gujranwala,Punjab
74.04510498,32.38080823,Stop Guian Wala/Kot Jaffar,Rasul Nagar-Wazirabad Rd,",",",",District Gujranwala,Punjab
74.03677941,32.38628065,Kot Jaffar,Khanki Rd,",",",",District Gujranwala,Punjab
74.03604985,32.38425118,Kot Jaffar Qabrustan,Khanki Rd,",",",",District Gujranwala,Punjab
74.04918194,32.37747386,Gunian Wala,",",",",",",District Gujranwala,Punjab
74.03759479,32.37374069,Mali Wala,Rasul Nagar-Wazirabad Rd,",",",",District Gujranwala,Punjab
74.03819561,32.36834,Thatt,Rasul Nagar-Wazirabad Rd,",",",",District Gujranwala,Punjab
74.03343201,32.37192841,Kathore Kalan Stop,Rasul Nagar-Wazirabad Rd,",",",",District Gujranwala,Punjab
74.02338982,32.38185924,Kathore Kalan,",",",",",",District Gujranwala,Punjab
74.01965618,32.3801921,Hassan Kathore,Kathore Kalan Rd,",",",",District Gujranwala,Punjab
74.02117968,32.36853277,Kheuewali Stop,Rasul Nagar-Wazirabad Rd,",",",",District Gujranwala,Punjab
74.00708199,32.36329489,Mansurwali Stop,Rasul Nagar-Wazirabad Rd,",",",",District Gujranwala,Punjab
74.00645971,32.36374801,Grammar Model School,Mansurwali Rd,",",Mansurwali,District Gujranwala,Punjab
73.94631386,32.33978413,Qabrustan,Ahmed Nagar Rd,",",Dillawar Cheema,District Gujranwala,Punjab
73.95120621,32.33311227,Govt. Boys High School,Ahmed Nagar Rd,",",Dillawar Cheema,District Gujranwala,Punjab
73.93974781,32.33633948,Govt. Girls High School,",",",",Dillawar Cheema,District Gujranwala,Punjab
73.94399643,32.33626861,Dillawar Cheema,Ahmed Nagar Rd,",",",",District Gujranwala,Punjab
73.90650988,32.33901446,Jamke Chatha,Wazirabad-Rasul Nagar-Wazirabad Rd,",",",",District Gujranwala,Punjab
73.87979507,32.3345281,Lower Chnab Canal,Wazirabad-Rasul Nagar-Wazirabad Rd,",",",",District Gujranwala,Punjab
73.86340141,32.33561592,Mandiala Chatha,Wazirabad-Rasul Nagar-Wazirabad Rd,",",",",District Gujranwala,Punjab
73.83516312,32.33286009,Salhoke Chatha,Wazirabad-Rasul Nagar-Wazirabad Rd,",",",",District Gujranwala,Punjab
73.8194561,32.32995912,Rakh Kalan,Wazirabad-Rasul Nagar-Wazirabad Rd,",",",",District Gujranwala,Punjab
73.80525112,32.32882179,Choti Rakh Kalan,Wazirabad-Rasul Nagar-Wazirabad Rd,",",",",District Gujranwala,Punjab
73.78112197,32.32593799,Al Hussian Imam Bargah,",",Muhalla Sadiq-e-Akbar,Rasul Nagar,District Gujranwala,Punjab
73.78198028,32.32635503,Govt. Hospital,",",",",Rasul Nagar,District Gujranwala,Punjab
73.7818408,32.32739103,Rasul Nagar Bus Stop,Wazirabad Rd,",",Rasul Nagar,District Gujranwala,Punjab
73.7824738,32.32813443,PTCL Exchange,Bara Dari Rd,",",Rasul Nagar,District Gujranwala,Punjab
73.7811166,32.3277718,Govt. High School for Boys,Main Bazar,",",Rasul Nagar,District Gujranwala,Punjab
73.77992034,32.32869322,Al-Imran Masjid & Imam Bargah,Rasul Nagar Bazar,",",Rasul Nagar,District Gujranwala,Punjab
73.78700137,32.32449565,Masjid Noor,Rasul Nagar Rd,",",Rasul Nagar,District Gujranwala,Punjab
73.78515601,32.32326264,Qabrustan Nai Abadi,Wazirabad Rd,",",Rasul Nagar,District Gujranwala,Punjab
73.78235579,32.33065141,Church,",",Christian Town,Rasul Nagar,District Gujranwala,Punjab
73.78097177,32.33112282,Christian's Graveyard,",",Christian Town,Rasul Nagar,District Gujranwala,Punjab
73.77979159,32.33024345,Darbar Gulab Shah,Rasul Nagar Bazar,",",Rasul Nagar,District Gujranwala,Punjab
73.78334284,32.32964512,Girls High School & College,Bara Dari Rd,",",Rasul Nagar,District Gujranwala,Punjab
73.78493071,32.33042477,Agricultural Land,Bara Dari Rd,",",Rasul Nagar,District Gujranwala,Punjab
73.77355814,32.32005557,Peer Pathan,Wazirabad Rd,",",Rasul Nagar,District Gujranwala,Punjab
73.77583265,32.32321071,Bara Qabrustan,Qabrustan Rd,",",Rasul Nagar,District Gujranwala,Punjab
73.79164696,32.30159065,Rasulpur,Rasul Nagar Rd,",",",",District Gujranwala,Punjab
73.79692554,32.30967941,Hassan Pur ,Rasul Nagar Rd,",",",",District Gujranwala,Punjab
73.80512238,32.287723,Jranwan,Rasul Nagar Rd,",",",",District Gujranwala,Punjab
73.81971359,32.297917,Bhagy Da Kot,",",",",",",District Gujranwala,Punjab
73.849926,32.30079262,Manchar Chatha,Jamke Chatha Rd,",",",",District Gujranwala,Punjab
73.84709358,32.29969449,Manchar Chatha Railway Station,Ali Pur Chatha Rd,",",",",District Gujranwala,Punjab
73.84593487,32.29693756,Govt. Boys High School,Ali Pur Chatha Rd,",",",",District Gujranwala,Punjab
73.81658077,32.25576823,Ali Pur Chatha Railway Station,",",",",Ali Pur Chatha,District Gujranwala,Punjab
73.81196737,32.26928614,PTCL Exchange,Rasul Nagar Rd,Mohalla Sadiq-e-Akbar,Ali Pur Chatha,District Gujranwala,Punjab
73.81108761,32.26870554,Jamia Masjid Madni,Rasul Nagar Rd,",",Ali Pur Chatha,District Gujranwala,Punjab
73.81263256,32.26663715,Govt. Boys High School,Rasul Nagar Rd,Rasul Nagar Chungi,Ali Pur Chatha,District Gujranwala,Punjab
73.81196737,32.26496788,Madina Chowk,Rasul Nagar Rd,",",Ali Pur Chatha,District Gujranwala,Punjab
73.8067317,32.26603839,Ali Medical Centre,Qadirabad-Gujranwala Rd,",",Ali Pur Chatha,District Gujranwala,Punjab
73.81346941,32.27050174,Govt. Girls College Sports Ground,Rasul Nagar Rd,",",Ali Pur Chatha,District Gujranwala,Punjab
73.81398439,32.2717899,Govt. Girls College,Qabrustan Rd,",",Ali Pur Chatha,District Gujranwala,Punjab
73.813169,32.27427546,Qabrustan,Rasul Nagar Rd,",",Ali Pur Chatha,District Gujranwala,Punjab
73.81031513,32.27703308,CNG Station,Rasul Nagar Rd,",",Ali Pur Chatha,District Gujranwala,Punjab
73.81072283,32.2777769,Chatha CNG Station,Rasul Nagar Rd,",",Ali Pur Chatha,District Gujranwala,Punjab
73.81998181,32.27562707,Inton Wala Bhatta,",",",",Ali Pur Chatha,District Gujranwala,Punjab
73.81389856,32.26531015,Police Station,Main Bazar,",",Ali Pur Chatha,District Gujranwala,Punjab
73.81720305,32.26565489,Ali Pur Times,Gujranwala Rd,",",Ali Pur Chatha,District Gujranwala,Punjab
73.99051666,32.24629212,Flour Mill,Kalaske Rd,Gujranwala Rd,Dehla Chatha,District Gujranwala,Punjab
74.00534391,32.24413577,Kot Proya,Gujranwala-Ali Pur Chatha Rd,",",",",District Gujranwala,Punjab
74.02184486,32.24319039,Alpha Computers and Mobiles,Gujranwala-Ali Pur Chatha Rd,",",Kalaske,District Gujranwala,Punjab
74.09145355,32.21981184,Dongran Wala,Gujranwala-Ali Pur Chatha Rd,",",",",District Gujranwala,Punjab
74.12745953,32.19886372,Gondlan Wala,Gujranwala-Ali Pur Chatha Rd,",",",",District Gujranwala,Punjab
74.12162304,32.19443317,Govt. High School,",",",",Gondlan Wala,District Gujranwala,Punjab
74.11906958,32.20574849,Gujranwala Medical College and Complex,Gujranwala-Ali Pur Chatha Rd,",",",",District Gujranwala,Punjab
74.13750172,32.19331065,Meraj Pura,Gujranwala-Ali Pur Chatha Rd,",",",",District Gujranwala,Punjab
74.13964748,32.19087735,Islam Lubricants Ltd,Gujranwala-Ali Pur Chatha Rd,",",Gujranwala,District Gujranwala,Punjab
74.14411068,32.19047785,Rajpot Town,Gujranwala-Ali Pur Chatha Rd,",",Gujranwala,District Gujranwala,Punjab
74.14423943,32.18829872,Al-Mujeeb Town,Gujranwala-Ali Pur Chatha Rd,",",Gujranwala,District Gujranwala,Punjab
74.14599895,32.18270537,Al-Mujeeb Town,G.T Rd,",",Gujranwala,District Gujranwala,Punjab
74.18298125,32.17835988,Suzuki Motors,G.T Rd,Industrial Estate,Gujranwala,District Gujranwala,Punjab
74.18105006,32.17614083,Govt. Ayesha-tul-Binaat Girls Degree College,9Th AVE,Industrial Estate,Gujranwala,District Gujranwala,Punjab
74.18215513,32.1762498,Government Social Security Hospital,Service Rd,Industrial Estate,Gujranwala,District Gujranwala,Punjab
74.18280959,32.17539618,Model Town Police Station,Model Town Rd,Model Town,Gujranwala,District Gujranwala,Punjab
74.18033123,32.17500569,Jamia Masjid Mukaram,",",Model Town,Gujranwala,District Gujranwala,Punjab
74.1838932,32.17556047,Sangam Cinema,G.T Rd,Model Town,Gujranwala,District Gujranwala,Punjab
74.18282032,32.17905002,Sapna Marriage Lawn,G.T Rd,Model Town,Gujranwala,District Gujranwala,Punjab
74.18268085,32.17952222,Pak Shuttle Company,G.T Rd,Industrial Estate,Gujranwala,District Gujranwala,Punjab
74.18244481,32.18038488,A-One Silencer,G.T Rd,Industrial Estate,Gujranwala,District Gujranwala,Punjab
74.18171525,32.18165616,Lone Palace,G.T Rd,Industrial Estate,Gujranwala,District Gujranwala,Punjab
74.18417215,32.18211019,Prince Cinepax,G.T Rd,",",Gujranwala,District Gujranwala,Punjab
74.18365717,32.18133834,Mehar CNG Station,G.T Rd,",",Gujranwala,District Gujranwala,Punjab
74.18621063,32.18474802,Food Godowns,Jinah Rd,Agriculture colony,Gujranwala,District Gujranwala,Punjab
74.18376446,32.18108409,Younis Petrolium Services,G.T Rd,",",Gujranwala,District Gujranwala,Punjab
74.18527722,32.17995809,Industry,G.T Rd,",",Gujranwala,District Gujranwala,Punjab
74.18466568,32.18305455,Shalimar Advertising Company,Jinah Rd,",",Gujranwala,District Gujranwala,Punjab
74.1829598,32.18339052,Govt Institute of Technology,G.T Rd,Sharifpura,Gujranwala,District Gujranwala,Punjab
74.18477297,32.18331334,Sanatzar,Jinah Rd,",",Gujranwala,District Gujranwala,Punjab
74.185009,32.18515663,Agriculture Offices,D C Rd,",",Gujranwala,District Gujranwala,Punjab
74.18083012,32.18498163,PACE,G.T Rd,Mujahid Colony,Gujranwala,District Gujranwala,Punjab
74.18344796,32.18834123,Quaid-e-Azam Public School,G.T Rd,",",Gujranwala,District Gujranwala,Punjab
74.18189228,32.18808699,Sheikh Muhammad Younas Auditorium,G.T Rd,Quaid-i-Azam Divisional Public School,Gujranwala,District Gujranwala,Punjab
74.12016392,32.43084418,Bhutta Enterprises,Nizamabad Rd,Mohallah Mian sahib Nizamabad,Wazeerabad,District Gujranwala,Punjab
74.12389755,32.43142373,Exclusive Technology,Wazirabad-Dhonkal Rd,Nizamabad,Wazeerabad,District Gujranwala,Punjab
74.12419796,32.4370783,Grain Storage & Wholesalers,Wazirabad-Daska Rd,Nizamabad,Wazeerabad,District Gujranwala,Punjab
74.11818981,32.43699558,Dar-e-Arqam School Main Branch,Wazirabad-Dhonkal Rd,Nizamabad,Wazeerabad,District Gujranwala,Punjab
74.11905348,32.44019191,City Park,Sialkot Rd,Nizamabad,Wazeerabad,District Gujranwala,Punjab
74.12219167,32.44070514,Zia-e-Madina School,Wazirabad-Sialkot Rd,Hajipura,Wazeerabad,District Gujranwala,Punjab
74.12629545,32.44227445,Sialkot Grammar School (Wazirabad Branch),",",Hajipura,Wazeerabad,District Gujranwala,Punjab
74.12643492,32.44272717,Hauwa Memorial Hospital,Wazirabad-Sialkot Rd,Hajipura,Wazeerabad,District Gujranwala,Punjab
74.12590921,32.44102206,Hajipura Qabrustan,",",Hajipura,Wazeerabad,District Gujranwala,Punjab
74.12749171,32.44288727,Qabrustan,Wazirabad-Sialkot Rd,Hajipura,Wazeerabad,District Gujranwala,Punjab
74.13380027,32.44285105,Masjid,Wazirabad-Sialkot Rd,Arain Colony,Wazeerabad,District Gujranwala,Punjab
74.13371444,32.44448988,Qabrustan,Wazirabad-Sialkot Rd,Cheema Colony,Wazeerabad,District Gujranwala,Punjab
74.13135409,32.44452609,Ghazali Model High School,Wazirabad-Sialkot Rd,Cheema Colony,Wazeerabad,District Gujranwala,Punjab
74.13770556,32.44619205,Winjowali,Wazirabad-Sialkot Rd,Cheema Colony,Wazeerabad,District Gujranwala,Punjab
74.13651466,32.44725219,Qabrustan,",",Winjowali,Wazeerabad,District Gujranwala,Punjab
74.1472435,32.44631057,Qabrustan,Wazirabad-Sialkot Rd,Karamabad,Wazeerabad,District Gujranwala,Punjab
74.14968967,32.44431867,Taj Garden Housing Scheem,Wazirabad-Sialkot Rd,",",Wazeerabad,District Gujranwala,Punjab
74.12014246,32.44553193,Molana Zafar Ali Khan Degree College,",",Model Colony,Wazeerabad,District Gujranwala,Punjab
74.11949873,32.44520598,MC High School,",",Model Colony,Wazeerabad,District Gujranwala,Punjab
74.12014246,32.44448165,MC High School Ground,Bakriyanwala Gala,Model Colony,Wazeerabad,District Gujranwala,Punjab
74.11931098,32.4460299,Gurudawara,",",Model Colony,Wazeerabad,District Gujranwala,Punjab
74.11549151,32.44675319,Butt Sweets,Main Bazar,",",Wazeerabad,District Gujranwala,Punjab
74.11529839,32.44728737,Haq Bahoo Shopping Mall,Main Bazar,",",Wazeerabad,District Gujranwala,Punjab
74.11568731,32.44729643,S.K Girl High School,Main Bazar,",",Wazeerabad,District Gujranwala,Punjab
74.11510259,32.44854133,Madina Masjid,Main Bazar,",",Wazeerabad,District Gujranwala,Punjab
74.11524206,32.44874051,R S Super Store,Main Bazar,",",Wazeerabad,District Gujranwala,Punjab
74.1148451,32.44989939,Musaman Burj,Circular Rd,Muhala Dabgaran,Wazeerabad,District Gujranwala,Punjab
74.115403,32.45078664,Musaman Burj Mosque,Circular Rd,Muhala Dabgaran,Wazeerabad,District Gujranwala,Punjab
74.11378026,32.44846458,Dara Aarain,Circular Rd,Muhala Dabgaran,Wazeerabad,District Gujranwala,Punjab
74.12637591,32.447802,Peer Mitha Qabrustan,Peer Mitha Rd,",",Wazeerabad,District Gujranwala,Punjab
74.12780285,32.44812341,Peer Mitha Janazgah,Peer Mitha Rd,",",Wazeerabad,District Gujranwala,Punjab
74.11216021,32.44579367,Wazirabad Railway Station,",",",",Wazeerabad,District Gujranwala,Punjab
74.11076009,32.44673364,Railway Sports Ground,G.T Rd,",",Wazeerabad,District Gujranwala,Punjab
74.11133409,32.44734025,Railway Crossing Bridge,G.T Rd,",",Wazeerabad,District Gujranwala,Punjab
74.11129653,32.44716823,Railway Station Bus Stop,G.T Rd,",",Wazeerabad,District Gujranwala,Punjab
74.11241233,32.44731309,Railway Crossing Bridge,Station Rd,",",Wazeerabad,District Gujranwala,Punjab
74.11257863,32.44366429,Wazirabad Loco Shed,College Rd,",",Wazeerabad,District Gujranwala,Punjab
74.11272883,32.44199829,Railway Crossing Bridge,College Rd,",",Wazeerabad,District Gujranwala,Punjab
74.11144674,32.44188964,Railway Crossing Bridge,G.T Rd,",",Wazeerabad,District Gujranwala,Punjab
74.11092103,32.44295806,Daak Choki Khandrat,G.T Rd,",",Wazeerabad,District Gujranwala,Punjab
74.11113024,32.43634403,Old Cargo Railway Terminal,Rasul Nagar-Wazirabad Rd,Ahmad Nagar,Wazeerabad,District Gujranwala,Punjab
74.09598112,32.42395593,Bones Crushing Mill,Wazirabad Baypass Rd,",",Wazeerabad,District Gujranwala,Punjab
74.09540176,32.43377895,Thatha Faqeer Ullah,Wazirabad Baypass Rd,",",Wazeerabad,District Gujranwala,Punjab
74.13595676,32.44935473,Katla Piran,Peer Mitha Rd,",",Wazeerabad,District Gujranwala,Punjab
74.09896374,32.4340325,Thatha Faqeer Ullah Qabrustan,Thatha Faqeer Ullah Rd,",",Wazeerabad,District Gujranwala,Punjab
74.09443617,32.43839702,Fuel & Restaurant,Wazirabad Baypass Rd,",",Wazeerabad,District Gujranwala,Punjab
74.10411358,32.4379805,Bhattike,Thatha Faqeer Ullah Rd,",",Wazeerabad,District Gujranwala,Punjab
74.10424232,32.44066069,Bhattike,Bhattike Rd,",",Wazeerabad,District Gujranwala,Punjab
74.0985775,32.44149371,Bhattike Qabrustan,Bhattike Rd,Bhattike,Wazeerabad,District Gujranwala,Punjab
74.10484314,32.44421001,Qabrustan,",",Railway Colony,Wazeerabad,District Gujranwala,Punjab
74.10992861,32.44471705,Allied School,G.T Rd,Railway Colony,Wazeerabad,District Gujranwala,Punjab
74.09385681,32.47527874,Wazeerabad Baypass  Gujrat End,G.T Rd,",",",",District Gujranwala,Punjab
74.13934707,32.41870974,Malik Agri Farm,Wazirabad-Dhonkal Rd,",",",",District Gujranwala,Punjab
74.17539597,32.41034089,Radla,",",",",",",District Gujranwala,Punjab
74.18479443,32.41229731,Fatehwali,Wazirabad-Daska Rd,",",",",District Gujranwala,Punjab
74.19260502,32.40668153,Alu Shahdeo,Wazirabad-Daska Rd,",",",",District Gujranwala,Punjab
74.20569419,32.40673094,Aziz Chak,Wazirabad-Daska Rd,",",",",District Gujranwala,Punjab
74.20243263,32.41731004,Nihalu Chak,Wazirabad-Daska Rd,",",",",District Gujranwala,Punjab
74.17608261,32.42339609,Patan Wali,Wazirabad-Daska Rd,",",",",District Gujranwala,Punjab
74.21110153,32.42122255,Kanbanwala,",",",",",",District Gujranwala,Punjab
74.18346405,32.43303148,Mohdpur,",",",",",",District Gujranwala,Punjab
74.1936779,32.43723306,Kot Shah Muhammad,",",Pulkhu Nala,",",District Gujranwala,Punjab
74.15797233,32.42680119,Ismailpur,Wazirabad-Daska Rd,",",",",District Gujranwala,Punjab
74.14853096,32.43723306,Ghaka mitter,Wazirabad-Daska Rd,",",",",District Gujranwala,Punjab
74.10975695,32.45884868,Gammon Jheel,G.T Rd,",",",",District Gujranwala,Punjab
74.10591602,32.46883413,Railway Depot,G.T Rd,Haripur Bund,",",District Gujranwala,Punjab
74.0921402,32.47915252,Akbar Restaurant & Resorts,G.T Rd,Chenab River,",",District Gujranwala,Punjab
74.09008026,32.42161114,Dhoneke,Rasul Nagar-Wazirabad Rd,",",",",District Gujranwala,Punjab
74.08802032,32.4148004,Ali Nagar,Rasul Nagar-Wazirabad Rd,",",",",District Gujranwala,Punjab
74.07935143,32.40813408,Inton Wala Bhatta,Rasul Nagar-Wazirabad Rd,",",",",District Gujranwala,Punjab
74.00915265,32.37810812,Post Office,",",",",Mansurwali,District Gujranwala,Punjab
74.00755406,32.37797221,Choti Masjid,Mansurwali Rd,",",Mansurwali,District Gujranwala,Punjab
74.00994659,32.38038237,Qabrustan/Jnazgah,Qabrustan Rd,",",Mansurwali,District Gujranwala,Punjab
74.0019536,32.38143587,Railway Station,",",",",Mansurwali,District Gujranwala,Punjab
74.00272608,32.38143587,Railway's Colony,Station Rd,",",Mansurwali,District Gujranwala,Punjab
74.00127769,32.38020363,Girls School Sports Ground,Saroke Rd,",",Mansurwali,District Gujranwala,Punjab
74.00275826,32.37888653,EidGah,Hakeem Pura Rd,",",Mansurwali,District Gujranwala,Punjab
74.00417447,32.37836101,Primary School,Hakeem Pura Rd,",",Mansurwali,District Gujranwala,Punjab
74.00464654,32.37983791,Baba Chilly Shah Qarustan,Station Rd,",",Mansurwali,District Gujranwala,Punjab
74.00147617,32.38081481,Railway Employ's Quarters,Saroke Rd,",",Mansurwali,District Gujranwala,Punjab
73.99729729,32.37946724,Saeedabad,Saroke Rd,",",",",District Gujranwala,Punjab
73.99600983,32.37700269,Inton Wala Bhatta,Saroke Rd,",",",",District Gujranwala,Punjab
74.00216818,32.36193553,Al Riaz Rice Mills,Rasul Nagar-Wazirabad Rd,",",Jeune Wali,District Gujranwala,Punjab
74.00218964,32.35747668,Jeune Wali,Rasul Nagar-Wazirabad Rd,",",",",District Gujranwala,Punjab
73.99751187,32.36030427,Inton Wala Bhatta,Rasul Nagar-Wazirabad Rd,",",Jeune Wali,District Gujranwala,Punjab
73.98596764,32.35700707,Saroke,Rasul Nagar-Wazirabad Rd,",",",",District Gujranwala,Punjab
73.95498276,32.34898514,Dharowal,Wazirabad-Rasul Nagar-Wazirabad Rd,",",",",District Gujranwala,Punjab
73.95822287,32.35440101,Govt. Boys Primary School,",",",",Dharowal,District Gujranwala,Punjab
73.9555192,32.35404754,Masjid Gulzaar-e-Madina,",",",",Dharowal,District Gujranwala,Punjab
73.95560503,32.35272429,Imam Bargah Qaisr-e-Abu Talib,",",",",Dharowal,District Gujranwala,Punjab
73.95477891,32.35196297,Darbaar Baba NoorJamal,",",",",Dharowal,District Gujranwala,Punjab
73.95521879,32.35189952,Govt. Girls Primary School,",",",",Dharowal,District Gujranwala,Punjab
73.93640041,32.34347092,Dillawar Cheema Cricket Club,Dillawar Cheema Rd,",",",",District Gujranwala,Punjab
73.93614292,32.34448612,Dillawar Cheema Stop,Wazirabad-Rasul Nagar-Wazirabad Rd,",",",",District Gujranwala,Punjab
73.97463799,32.39962921,Khanki,",",",",",",District Gujranwala,Punjab
73.97011042,32.40250982,Barrage View Cable Car,Burj Cheema Rd,",",Khanki,District Gujranwala,Punjab
73.98605347,32.37696975,Islamabad,Khanki Rd,",",",",District Gujranwala,Punjab
73.93738747,32.33592249,Eid Gah Ahle Hadees,",",",",Dillawar Cheema,District Gujranwala,Punjab
73.93908262,32.33592249,Church,",",",",Dillawar Cheema,District Gujranwala,Punjab
73.94253731,32.33436328,Jamia Masjid Ahle Hadees,Ring Rd,",",Dillawar Cheema,District Gujranwala,Punjab
74.096303,32.28688527,Government Girls School,",",",",Banke Cheema,District Gujranwala,Punjab
74.09149648,32.2931252,Banke Cheema,Ghakhar Rd,",",",",District Gujranwala,Punjab
74.05173542,32.29255137,Gill Wala,Ghakhar Rd,",",",",District Gujranwala,Punjab
74.04527664,32.30295586,Kale Wala,Kale Wala Rd,",",",",District Gujranwala,Punjab
74.00285483,32.3101163,Hi Tech Rice Mills,Kale Wala Rd,",",Ahmad Nagar Chattha,District Gujranwala,Punjab
74.01244641,32.31430547,Chabba Cheema,Kale Wala Rd,",",",",District Gujranwala,Punjab
74.01060105,32.31267664,Qarustan Chabba Cheema,Kale Wala Rd,",",",",District Gujranwala,Punjab
73.99367094,32.31082193,Allied School,Kale Wala Rd,",",Ahmad Nagar Chattha,District Gujranwala,Punjab
73.98828506,32.31004211,Bus Stop,Saroki Rd,",",Ahmad Nagar Chattha,District Gujranwala,Punjab
73.98882151,32.30714041,Gapco Sub Division II,Kalaske Rd,",",Ahmad Nagar Chattha,District Gujranwala,Punjab
73.98247004,32.3175861,Kalu Cheema,Saroki Rd,",",",",District Gujranwala,Punjab
73.98045301,32.3140318,Kashmir Rice Mills,Ahmad Nagar Rd,",",Dillawer Cheema,District Gujranwala,Punjab
73.97161245,32.31892799,Pthanke Cheema,Pthanke Rd,",",",",District Gujranwala,Punjab
73.98957253,32.32496792,Peer Kot,Saroki Rd,",",",",District Gujranwala,Punjab
73.98721218,32.32250188,Qabrustan,Saroki Rd,",",Peer Kot,District Gujranwala,Punjab
73.96652699,32.3091914,Ghari Donger,",",",",",",District Gujranwala,Punjab
73.97631168,32.30092122,New Colony,Ahmad Nagar Rd,",",",",District Gujranwala,Punjab
73.98854258,32.33798931,Iftkhar Nagar Cheema,Ahmad Nagar Rd,",",",",District Gujranwala,Punjab
74.01081562,32.33941001,Kaka Kolo,",",",",",",District Gujranwala,Punjab
74.01703835,32.35714547,KheueWali,",",",",",",District Gujranwala,Punjab
74.01287556,32.35865156,Qabrustan,Ali Masjid Rd,",",KheueWali,District Gujranwala,Punjab
74.14531231,32.3038627,Muhalla Taliya Wala,G.T Rd,",",Ghakhar,District Gujranwala,Punjab
74.14011955,32.32025668,Kotli Sahian,G.T Rd,",",",",District Gujranwala,Punjab
74.13200855,32.32417339,Kotli Khushi Muhammad,",",",",",",District Gujranwala,Punjab
74.14144993,32.32257771,Qabrustan,G.T Rd,",",Kotli Sahian,District Gujranwala,Punjab
74.13924519,32.33695157,Ojla Kalan,G.T Rd,",",",",District Gujranwala,Punjab
74.13971726,32.3394716,Ojla Rice Mills,G.T Rd,",",Ojla Kalan,District Gujranwala,Punjab
74.13988352,32.33897325,Wala Rice Mills,G.T Rd,",",Ojla Kalan,District Gujranwala,Punjab
74.13694918,32.34223239,Petrol Pump,G.T Rd,",",",",District Gujranwala,Punjab
74.14531231,32.35058695,Bhatti Mansur,G.T Rd,",",",",District Gujranwala,Punjab
74.13612843,32.35319724,Gujjar Kot,G.T Rd,",",",",District Gujranwala,Punjab
74.12509918,32.39841699,Dhonkal More,",",",",",",District Gujranwala,Punjab
74.12368298,32.3956993,Inton wala Bhata,G.T Rd,",",Dhonkal More,District Gujranwala,Punjab
74.12904739,32.40006072,Dhonkal Railway Phatak,Dhonkal More Rd,",",",",District Gujranwala,Punjab
74.13741589,32.40538706,Dhonkal,",",",",",",District Gujranwala,Punjab
74.13999081,32.40428196,Government Girls High School,Circular Rd,",",Dhonkal,District Gujranwala,Punjab
74.14123535,32.40551387,PTCL excange,Wazirabad-Dhonkal Rd,",",Dhonkal,District Gujranwala,Punjab
74.12233114,32.40272393,Hassan Abdullah CNG,G.T Rd,",",",",District Gujranwala,Punjab
74.12390828,32.40266052,Petrol Pump,G.T Rd,",",",",District Gujranwala,Punjab
74.12353814,32.40381998,CNG Station,G.T Rd,",",",",District Gujranwala,Punjab
74.12248671,32.40389945,Highway Rest Area,G.T Rd,",",",",District Gujranwala,Punjab
74.12348449,32.40462411,Rehman Madical Comlex,G.T Rd,",",Veroke Rd,District Gujranwala,Punjab
74.12205756,32.40483245,Kambo CNG,G.T Rd,",",Veroke Rd,District Gujranwala,Punjab
74.11063671,32.40477111,Veroke,Veroke Rd,",",",",District Gujranwala,Punjab
74.12224531,32.40628628,Wazeerabad Baypass  GRW End,G.T Rd,",",Wazeerabad,District Gujranwala,Punjab
74.12280858,32.40649461,Al-Noor CNG Station,G.T Rd,Wazirabad Baypass Rd GRW End,Wazeerabad,District Gujranwala,Punjab
74.12161768,32.40709244,Paris CNG,Wazirabad Baypass Rd GRW End,Naseer Colony,Wazeerabad,District Gujranwala,Punjab
74.12263155,32.41015149,WIC Wazirabad,G.T Rd,Naseer Colony,Wazeerabad,District Gujranwala,Punjab
74.11767483,32.40924573,UBA Boarding School - Orphanage,Wazirabad Baypass Rd GRW End,Naseer Colony,Wazeerabad,District Gujranwala,Punjab
74.11482096,32.40916174,Inton wala Bhata,Wazirabad Baypass Rd GRW End,Naseer Colony,Wazeerabad,District Gujranwala,Punjab
74.11286831,32.41076573,Jatala CNG,Wazirabad Baypass Rd,",",Wazeerabad,District Gujranwala,Punjab
74.12097931,32.41888095,Punjab Group of Colleges,G.T Rd,Opposite Omar Marriage Hall Nizamabad,Wazeerabad,District Gujranwala,Punjab
74.11913395,32.4167024,Industry,G.T Rd,Shadman Town,Wazeerabad,District Gujranwala,Punjab
74.11842585,32.41970927,Thermopol Industry,G.T Rd,Shadman Town,Wazeerabad,District Gujranwala,Punjab
74.11574364,32.41831453,Chenab College of Commerce,",",Shadman Town,Wazeerabad,District Gujranwala,Punjab
74.10365224,32.41943428,Govt. Praimery School,Bharoke Chima Rd,Khasry,Wazeerabad,District Gujranwala,Punjab
74.10502553,32.41954296,Qabrustan,",",Khasry,Wazeerabad,District Gujranwala,Punjab
74.10790086,32.42385384,Jatala Colony,Bharoke Chima Rd,Allahabad,Wazeerabad,District Gujranwala,Punjab
74.11008954,32.42617221,Yousaf Town,Usman Rd,Allahabad,Wazeerabad,District Gujranwala,Punjab
74.10175323,32.42813159,Crescent Star Horns & Hoofs Crushing Factory,Rasul Nagar-Wazirabad Rd,",",Wazeerabad,District Gujranwala,Punjab
74.10404921,32.42903717,Cinema,Rasul Nagar-Wazirabad Rd,Allahabad,Wazeerabad,District Gujranwala,Punjab
74.10529375,32.42863048,Grain Wholesalers & Storage,",",Allahabad,Wazeerabad,District Gujranwala,Punjab
74.10766482,32.4294455,Rice Mill,Bharoke Chima Rd,Allahabad,Wazeerabad,District Gujranwala,Punjab
74.11169887,32.43328503,Jafariyah Colony,",",",",Wazeerabad,District Gujranwala,Punjab
74.11769629,32.4250402,Darson Industries,G.T Rd,Allahabad,Wazeerabad,District Gujranwala,Punjab
74.11559343,32.42453306,Eidgah,Eidgah Rd,Jatala Colony Allahabad,Wazeerabad,District Gujranwala,Punjab
74.11565781,32.42670652,Attiq ur Rehman Cutlery Works,School Rd,Pak Town Allahabad,Wazeerabad,District Gujranwala,Punjab
74.11823273,32.42724987,Govt. High School,G.T Rd,Nizamabad,Wazeerabad,District Gujranwala,Punjab
74.11636591,32.42839091,Qabrustan,G.T Rd,Allahabad,Wazeerabad,District Gujranwala,Punjab
74.11756754,32.42965872,Nizamabad Railway Station,G.T Rd,Nizamabad,Wazeerabad,District Gujranwala,Punjab
74.11496043,32.42732232,Dar-e-Arqam School,Eidgah Rd,Allahabad,Wazeerabad,District Gujranwala,Punjab
74.11608696,32.42948666,Glorious Webmasters,G.T Rd,Allahabad,Wazeerabad,District Gujranwala,Punjab
74.11681652,32.42974022,Shell Pump Pakistan,G.T Rd,Nizamabad,Wazeerabad,District Gujranwala,Punjab
74.11621571,32.431171,PSO,G.T Rd,Nizamabad,Wazeerabad,District Gujranwala,Punjab
74.11455274,32.43371557,Veg & Fruit Market,G.T Rd,Allahabad,Wazeerabad,District Gujranwala,Punjab
74.11437035,32.43400452,Sialkot Van Stand,G.T Rd,Allahabad,Wazeerabad,District Gujranwala,Punjab
74.11400557,32.43450255,Gujranwala Van Stand,G.T Rd,Allahabad,Wazeerabad,District Gujranwala,Punjab
74.12189126,32.44219914,Yousaf Farooq Hospital,Model Town Rd,Model Colony,Wazeerabad,District Gujranwala,Punjab
74.11924124,32.44148713,Govt. High School,College Rd,",",Wazeerabad,District Gujranwala,Punjab
74.11673069,32.44062694,PTCL Exchange,Circular Rd,",",Wazeerabad,District Gujranwala,Punjab
74.11765873,32.44041869,Ayesha Family Hospital,Wazirabad-Sialkot Rd,Cheema Plaza,Wazeerabad,District Gujranwala,Punjab
74.11619425,32.43994332,Magistrates & Civil Session Courts,Court Rd,Mohallah Sheru,Wazeerabad,District Gujranwala,Punjab
74.11473244,32.44027053,Rameen Air Travels (Pvt) Ltd,Circular Rd,",",Wazeerabad,District Gujranwala,Punjab
74.11656976,32.44256419,Ghalla Mandi,Main Bazar,",",Wazeerabad,District Gujranwala,Punjab
74.11397338,32.44273623,Oxford Public School,4 Circular Rd,",",Wazeerabad,District Gujranwala,Punjab
74.11442399,32.44270001,City Center,Circular Rd,",",Wazeerabad,District Gujranwala,Punjab
74.11450446,32.44349679,Civil Hospital,Circular Rd,",",Wazeerabad,District Gujranwala,Punjab
74.1137749,32.44391329,Civil Hospital,Station Rd,",",Wazeerabad,District Gujranwala,Punjab
74.11298096,32.44298975,Civil Hospital,College Rd,",",Wazeerabad,District Gujranwala,Punjab
74.11468685,32.44407174,United Bank Limited,Circular Rd,",",Wazeerabad,District Gujranwala,Punjab
74.11330283,32.44436147,Kashmir Mahal Cinema,Station Rd,",",Wazeerabad,District Gujranwala,Punjab
74.11343962,32.44484278,Govt. Public High School,Bakar Gala,",",Wazeerabad,District Gujranwala,Punjab
74.11286563,32.44482241,General Post Office,Bakar Gala,",",Wazeerabad,District Gujranwala,Punjab
74.11266983,32.4453566,Taj Mahal Cinema,Station Rd,",",Wazeerabad,District Gujranwala,Punjab
74.11291391,32.44600171,Police Station Sadar,Rail Bazar,",",Wazeerabad,District Gujranwala,Punjab
74.11260009,32.44615563,Police Station Sadar,Station Rd,",",Wazeerabad,District Gujranwala,Punjab
74.11333501,32.44608998,MCB,Rail Bazar,",",Wazeerabad,District Gujranwala,Punjab
74.11421344,32.44625409,King Fish Corner,Rail Bazar,",",Wazeerabad,District Gujranwala,Punjab
74.11448032,32.44632595,Tikka Shop,Rail Bazar,",",Wazeerabad,District Gujranwala,Punjab
74.11563098,32.44687089,Riffat Medical Store,Main Bazar,",",Wazeerabad,District Gujranwala,Punjab
74.18781459,32.16998656,Suffah School,Bukhari Rd,",",Gujranwala,Gujranwala District,Punjab
74.18702602,32.16972774,Government Iqbal High School,Service Rd [G.T Rd],",",Gujranwala,Gujranwala District,Punjab
74.19824846,32.17438202,Christian Technical Training Center,Church Road Civil Lines,",",Gujranwala,Gujranwala District,Punjab
74.19675976,32.17182558,The Educators,Chatha Colony Civil Lines  Near Session Court,",",Gujranwala,Gujranwala District,Punjab
74.19519871,32.17188007,Punjab College for Women,Chatha Colony Hospital Rd,",",Gujranwala,Gujranwala District,Punjab
74.19574052,32.16868334,Punjab College of Commerce,29-A Session Court Rd,",",Gujranwala,Gujranwala District,Punjab
74.19734448,32.16762984,Gujranwala College of Commerce,112A Sialkot Rd Satelite Town,",",Gujranwala,Gujranwala District,Punjab
74.19820815,32.16631296,American International School,21 -A Liaqat Ali Khan RdSatelite Town,",",Gujranwala,Gujranwala District,Punjab
74.19877142,32.16690329,Aizar Model Girls School,24-A Lone St Satelite Town,",",Gujranwala,Gujranwala District,Punjab
74.19931322,32.16678976,National Science College,39-A  Satelite Town,",",Gujranwala,Gujranwala District,Punjab
74.19968337,32.16719845,Crescent Science College,Block-A Satelite Town,",",Gujranwala,Gujranwala District,Punjab
74.20077235,32.16506417,Times College,Times College 91A Satelite Town,",",Gujranwala,Gujranwala District,Punjab
74.20226902,32.16425585,Student Counselling Services,SCS House2nd Floor Al-Noor Shopping Center Opposite Taj Center(Nishat Lilen) Sattelite Town Market ,",",Gujranwala,Gujranwala District,Punjab
74.20161456,32.16395614,NID Gujranwala,National Institute for Deaf Satellite Town,",",Gujranwala,Gujranwala District,Punjab
74.20115858,32.16326134,Zietech College,Lone St Satellite Town,",",Gujranwala,Gujranwala District,Punjab
74.19923276,32.16376087,Government Post Graduate College For Women And Hostel,CMS College Rd Satellite Town,",",Gujranwala,Gujranwala District,Punjab
74.19298596,32.17047779,Al Mudabbir School,Hospital RoadCivil Lines,",",Gujranwala,Gujranwala District,Punjab
74.18186814,32.17742868,Naubahar Bottling Company Offices,Industrial EstateModel TownStreet 15,",",",",",",","
74.1542387,32.27499621,Panaflex Private Limited,G.T Rd,",",Rahwali Cantonments,District Gujranwala,Punjab
74.15447473,32.27274653,Herman Marriage Lawns,G.T Rd,",",Rahwali Cantonments,District Gujranwala,Punjab
74.15608406,32.27093223,G.T Rd,G.T Rd,",",",",District Gujranwala,Punjab
74.15475368,32.27330896,Tiwana Wala Pea,G.T Rd,",",",",District Gujranwala,Punjab
74.151299,32.2733271,Tiwana Wala Pea,Tiwana Wala Pea,",",",",District Gujranwala,Punjab
74.14614916,32.27174867,Tiwana Wala Pea,Tiwana Wala Pea,",",",",District Gujranwala,Punjab
74.14110661,32.27178496,Tiwana Wala Pea,Tiwana Wala Pea,",",",",District Gujranwala,Punjab
74.1286397,32.27183939,Tiwana Wala Pea,Tiwana Wala Pea,",",",",District Gujranwala,Punjab
74.12799597,32.27183939,Baduki Gusaian,Tiwana Wala Pea,",",",",District Gujranwala,Punjab
74.15123463,32.28916428,G.T Rd,G.T Rd,",",",",District Gujranwala,Punjab
74.1529727,32.27940469,Phtana Wala Pea,Phtana Wala Pea,",",",",District Gujranwala,Punjab
74.14982915,32.28048411,Phtana Wala Pea,Phtana Wala Pea,",",",",District Gujranwala,Punjab
74.14526939,32.28049318,Phtana Wala Pea,Phtana Wala Pea,",",",",District Gujranwala,Punjab
74.1455698,32.27722769,Phtana Wala Pea,Phtana Wala Pea,",",",",District Gujranwala,Punjab
74.12954092,32.27719141,Phtana Wala Pea,Phtana Wala Pea,",",",",District Gujranwala,Punjab
74.12821055,32.27642944,Adda,Phtana Wala Pea,",",",",District Gujranwala,Punjab
74.13361788,32.28252497,Mandir Tomri Sahib,",",",",Badoki Gosaiyan,District Gujranwala,Punjab
74.1433382,32.28706338,Bhaggat Ghara,",",",",",",District Gujranwala,Punjab
74.13443327,32.28867617,Ahmad Mujtaba Rice Mills,",",",",Ghakhar,District Gujranwala,Punjab
74.14863825,32.29197752,Ghakhar Grid Station,G.T Rd,",",Ghakhar,District Gujranwala,Punjab
74.14760828,32.30525426,G.T Rd,G.T Rd,",",",",District Gujranwala,Punjab
74.14999008,32.2905808,Al-Hamra Cinema,G.T Rd,",",",",District Gujranwala,Punjab
74.15106297,32.29192309,Al-Rehmat CNG Station,G.T Rd,",",",",District Gujranwala,Punjab
74.14889574,32.29675618,CNG Station,G.T Rd,",",",",District Gujranwala,Punjab
74.15015101,32.29681966,Siddique Library,G.T Rd,",",",",District Gujranwala,Punjab
74.15061235,32.29764494,Old Police Station Ghakhar,G.T Rd,",",",",District Gujranwala,Punjab
74.14971113,32.29783538,Thana Rd,",",",",",",District Gujranwala,Punjab
74.15341258,32.29885109,Thana Rd,",",",",",",District Gujranwala,Punjab
74.15320873,32.30115536,Thana Rd,",",",",",",District Gujranwala,Punjab
74.14786577,32.29814455,Government High School No. 2,College Rd,",",",",District Gujranwala,Punjab
74.14583266,32.2980621,Girls College,College Rd,",",",",District Gujranwala,Punjab
74.14885283,32.29915036,College Rd,College Rd,",",",",District Gujranwala,Punjab
74.14304852,32.29856089,College Rd,College Rd,",",",",District Gujranwala,Punjab
74.15232897,32.30171761,Ghakhar Railway Station,",",",",",",District Gujranwala,Punjab
74.1517067,32.30164506,Railway Station Rd,Railway Station Rd,",",",",District Gujranwala,Punjab
74.15067673,32.30168133,Railway Station Rd,Railway Station Rd,",",",",District Gujranwala,Punjab
74.15071964,32.30197153,Railway Station Rd,Railway Station Rd,",",",",District Gujranwala,Punjab
74.14863825,32.30251563,Railway Station Rd,Railway Station Rd,",",",",District Gujranwala,Punjab
74.14773703,32.3030416,Sharry Mortars,G.T Rd,",",",",District Gujranwala,Punjab
74.15121317,32.30309601,PostOffice Ghakkhar,",",",",",",District Gujranwala,Punjab
74.15069819,32.30317763,PostOffice Rd,",",",",",",District Gujranwala,Punjab
74.14852023,32.30304984,PostOffice Rd,",",",",",",District Gujranwala,Punjab
74.14791942,32.30285941,Porana Noora Kot Rd,",",",",",",District Gujranwala,Punjab
74.14429307,32.30220648,Porana Noora Kot Rd,",",",",",",District Gujranwala,Punjab
74.13681507,32.3021529,Porana Noora Kot Rd,",",",",",",District Gujranwala,Punjab
74.13662195,32.30108281,Gill Wala Rd,",",",",",",District Gujranwala,Punjab
74.12364006,32.3011026,Gill Wala Rd,",",",",",",District Gujranwala,Punjab
74.12462711,32.29947024,Kot Nura,",",",",",",District Gujranwala,Punjab
74.12359715,32.29417395,Gill Wala Rd,",",",",",",District Gujranwala,Punjab
74.11183834,32.29558874,Gill Wala Rd,",",",",",",District Gujranwala,Punjab
74.15014029,32.30451231,Mashriqi Qadimi Qabristan,",",",",",",District Gujranwala,Punjab
74.14576292,32.30581813,Faisal Shaheed Masjid,",",",",",",District Gujranwala,Punjab
74.16797161,32.3084297,Nat Kalan,Ghakhar Rd,",",",",District Gujranwala,Punjab
32.30705138,32.30705138,Muhalla Peer Abdulah Shah,G.T Rd,",",Ghakhar,District Gujranwala,Punjab
74.09475804,32.28848157,Government Boys School,",",",",Banke Cheema,District Gujranwala,Punjab
74.15775776,32.3363741,Nivan Ojla,",",",",",",District Gujranwala,Punjab
74.16445255,32.34601878,Kot Inayat Khan,Canal Rd,",",",",District Gujranwala,Punjab
74.15719986,32.32178316,Fateh Garh,",",",",",",District Gujranwala,Punjab
74.11334038,32.34448282,Sangon Wali,Canal Rd,",",",",District Gujranwala,Punjab
74.10570145,32.34402466,Chak Sanata,Canal Rd,",",",",District Gujranwala,Punjab
74.09613133,32.34221179,Kolari Village,Canal Rd,",",",",District Gujranwala,Punjab
74.20071602,32.33708611,Kotli Isa,",",",",",",District Gujranwala,Punjab
74.20311928,32.36942412,Changan Wali,",",",",",",District Gujranwala,Punjab
74.22045708,32.3668868,Chal Gilan,Canal Rd,",",",",District Gujranwala,Punjab
74.19805527,32.36289944,Kot Yousaf,",",",",",",District Gujranwala,Punjab
74.18488026,32.35852633,Qila Singian,",",",",",",District Gujranwala,Punjab
74.17962313,32.35885341,Dodan Wali Khurd,",",",",",",District Gujranwala,Punjab
74.18048143,32.35519198,Dodan Wali Kalan,",",",",",",District Gujranwala,Punjab
74.1966176,32.34910133,Bagriyan Kohna,",",",",",",District Gujranwala,Punjab
74.24002647,32.36617502,Mitran Wali,",",",",",",District Gujranwala,Punjab
74.25418854,32.3822546,Kotli Khanon,Daska-Wazirabad Rd,",",",",District Gujranwala,Punjab
74.25873756,32.3743305,Garha Khurd,",",",",",",District Gujranwala,Punjab
74.26431656,32.37819544,Garha Kalan,Daska-Wazirabad Rd,",",",",District Gujranwala,Punjab
74.2370224,32.39071172,Kundan Sian,Daska-Wazirabad Rd,",",",",District Gujranwala,Punjab
74.13947582,32.3813255,Dad Wali,Cap. Nawaz Chima Shahid Rd,",",",",District Gujranwala,Punjab
74.13638592,32.38136174,Qabrustan,Cap. Nawaz Chima Shahid Rd,",",Dad Wali,District Gujranwala,Punjab
74.13310289,32.38326443,Railway Station,",",",",Dhaunkal,District Gujranwala,Punjab
74.12883282,32.38212282,Kot Khizri,G.T Rd,",",Dhaunkal,District Gujranwala,Punjab
74.13136482,32.38255772,Masood Town,Railway Station Rd,",",Dhaunkal,District Gujranwala,Punjab
74.12029266,32.37791867,Bhuda Rajada,",",",",",",District Gujranwala,Punjab
74.1321373,32.38933465,Burewali,",",",",",",District Gujranwala,Punjab
74.09660339,32.38065996,Manzoorabad,",",",",",",District Gujranwala,Punjab
74.06792521,31.29990405,Saira Hospital,Manga Mandi,",",Lahore,LahoreDistrict,Punjab
74.06621933,31.27557992,GILLANWALA,Manga Mandi,",",Lahore,LahoreDistrict,Punjab
74.04875278,31.27668028,KULANWALA,Manga Mandi,",",Lahore,LahoreDistrict,Punjab
74.05192852,31.26598331,Lahore Branch Canal,",",",",Lahore,LahoreDistrict,Punjab
74.22391157,31.9599201,Dar-e-Arqam Secondary School Kamoke,N5Kamoki,",",Gujranwala,Gujranwala District,Punjab
74.22621827,31.96077574,United College,N5Kamoki ,",",Gujranwala,Gujranwala District,Punjab
74.22092037,31.9753696,Allied School Kamoke Campus,Ramay Road Behind Taj Din Filling Station Taj Town GT Road Kamoki,",",Gujranwala,Gujranwala District,Punjab
74.22010498,31.97890982,Secondary College Kamoke,N5Kamoki ,",",Gujranwala,Gujranwala District,Punjab
74.21977239,31.98022031,Girl High School,Mohallah Muslim GanjSeth Anis Road Kamoki ,",",Gujranwala,Gujranwala District,Punjab
74.23121771,31.9803102,Zenith Model School,Kamoki,",",Gujranwala,Gujranwala District,Punjab
74.21785213,31.99169429,The Educators Global Acdamic Campus,Pak Town Near G.T Road,",",Gujranwala,Gujranwala District,Punjab
74.21997644,31.99247683,Punjab College,G.T Road N5 Kamoki ,",",Gujranwala,Gujranwala District,Punjab
74.20711036,31.98920129,Govt. College Kamoke,Kamoke To Ghumanwala Rd,",",Gujranwala,Gujranwala District,Punjab
74.136772,32.00662,Allied School, Tatlay Aali Campus Sheikhupura Rd Tatlay Aali,",",Gujranwala,Gujranwala District,Punjab
74.20735717,32.05439008,The Educators School,N5 Eminabad More,",",Gujranwala,Gujranwala District,Punjab
74.2085695,32.055263,Allied School Ishaq Campus,Near Railway Station G.T Road Eminabad More ,",",Gujranwala,Gujranwala District,Punjab
74.20299632,32.07449153,Jamia Jafria,Atawa Morr ,",",Gujranwala,Gujranwala District,Punjab
74.20270048,32.0803612,Al-Madina Islamic University,N5,",",Gujranwala,Gujranwala District,Punjab
74.1795969,32.09439101,Girls College,C-1 Block Wapda Town,",",Gujranwala,Gujranwala District,Punjab
74.1851759,32.09649968,Lyceum,B-1 Block Wapda Town,",",Gujranwala,Gujranwala District,Punjab
74.18287993,32.09906274,Allied School Guj Wapda Town Campus,Wapda Town,",",Gujranwala,Gujranwala District,Punjab
74.18897391,32.10068052,Leads Concern,3rd Floor Mughal Plaza Wapda Town ,",",Gujranwala,Gujranwala District,Punjab
74.1869998,32.10262545,The Educators,Gujranwala Bypass ,",",Gujranwala,Gujranwala District,Punjab
74.21816684,32.09825126,Red Rose School,G. Magnolia Park Near Block E,",",Gujranwala,Gujranwala District,Punjab
74.21490528,32.10292278, Yellow Rose School,G. Magnolia Park,",",Gujranwala,Gujranwala District,Punjab
74.1704584,32.11326127,Government High School,Sarfrazabad Sheikhupura Rd,",",Gujranwala,Gujranwala District,Punjab
74.1745607,32.1183323,Allied School Khiali Campus,Opp. Asad Colony Sheikhupura Rd,",",Gujranwala,Gujranwala District,Punjab
74.194868,32.126188,Virtual University of Pakistan Gujranwala Campus (VGJW01),Grand Trunk Rd Markaz-E-Sanat,",",Gujranwala,Gujranwala District,Punjab
74.194134,32.1314586,Allied School G.T Road Campus,G.T. Rd Jinah Colony,",",Gujranwala,Gujranwala District,Punjab
74.19344199,32.13113152,Punjab College of Science,Opposite Taj Mahal Marriage Hall  G.T. Road ,",",Gujranwala,Gujranwala District,Punjab
74.20820895,32.12669055,Jadeed Dastgir Ideal High School,Main Rd Shadman Colony,",",Gujranwala,Gujranwala District,Punjab
74.20869297,32.13490514,Apple Roots Montessori School,Madni Road 100 Central Main Rd ,",",Gujranwala,Gujranwala District,Punjab
74.208578,32.139876,Workers Welfare Higher Secondary School,Sector Y  Peoples Colony,",",Gujranwala,Gujranwala District,Punjab
74.20730127,32.14058006,Worker Welfare Secondary School,Main Rd Peoples Colony,",",Gujranwala,Gujranwala District,Punjab
74.2080119,32.1424866,Elite College for Girls,Main Rd Peoples Colony,",",Gujranwala,Gujranwala District,Punjab
74.19482678,32.13690801,Government Institute of Leather Technology,G.T Road N5 ,",",Gujranwala,Gujranwala District,Punjab
74.2110149,32.1466695,Emirates College,Main Rd Sector W Peoples Colony,",",Gujranwala,Gujranwala District,Punjab
74.21081642,32.14637427,White House School,32 Z-Block Main Road Peoples Colony,",",Gujranwala,Gujranwala District,Punjab
74.19042098,32.14535543,Government Higher Secondary School,G.T. Rd Highway Staff Colony ,",",Gujranwala,Gujranwala District,Punjab
74.183333,32.15,Journal Pk,Regional Office APSACS Mohallah Miran Shah,",",Gujranwala,Gujranwala District,Punjab
74.16423058,32.15528516,St Mary Joseph School,Sultanpura Hafizabad Rd,",",Gujranwala,Gujranwala District,Punjab
74.160007,32.155014,Sirat ul Jannah High School Boys Campus,Shahrukh Colony Hafizabad Rd,",",Gujranwala,Gujranwala District,Punjab
74.15999584,32.15275439,Government Girls High School,Shahrukh Colony ,",",Gujranwala,Gujranwala District,Punjab
74.15400645,32.1532097,City Public School,Faisal Colony ,",",Gujranwala,Gujranwala District,Punjab
74.15369532,32.15302576,Civil Soldiers Public School,Sharifpura ,",",Gujranwala,Gujranwala District,Punjab
74.1434132,32.15529074,Taleem ul Quran,",",",",Gujranwala,Gujranwala District,Punjab
74.14431174,32.15494161,Allama Ehsan Shaheed Higher Secondary School Alam Chowk Campus,",",",",Gujranwala,Gujranwala District,Punjab
74.14445552,32.16272558,Jamia Madeena-Tul-Ilm,N5,",",Gujranwala,Gujranwala District,Punjab
74.15975869,32.16409445,Al Sajid Memorial Public School.,Mohalla Abbas Pura Street No. 7 Garjakh ,",",Gujranwala,Gujranwala District,Punjab
74.15562068,32.16791417,Ahmad-e-Rahbeer Science Academy,Raza Abad ,",",Gujranwala,Gujranwala District,Punjab
74.14947584,32.16705623,Government Primary School Number 2,Hasanpura ,",",Gujranwala,Gujranwala District,Punjab
74.14605298,32.16849953,Allied School Pipnakha Campus,Nawab Chowk N5 ,",",Gujranwala,Gujranwala District,Punjab
74.16730459,32.16608745,Dawn Public High School,Gurjakh Rd near RehmatPura,",",Gujranwala,Gujranwala District,Punjab
74.17281155,32.16385167,Government Islamia College,Abadi Muhammad Baksh ,",",Gujranwala,Gujranwala District,Punjab
74.17647746,32.16225224,Government Girls Higher & Secondary School,College Road,",",Gujranwala,Gujranwala District,Punjab
74.17834428,32.16214325,Mati-UR-Rasool Sciences & Commerce Academy,College Road near Govt. Girls No. 1 school College Rd ,",",Gujranwala,Gujranwala District,Punjab
74.17980346,32.15849022,School's Auditorium,Hafizabad Road ,",",Gujranwala,Gujranwala District,Punjab
74.17812511,32.15745301,ELS English Language School & Student Consultants,Hafizabad Road Timber Market Opp. Muslim Commercial Bank,",",Gujranwala,Gujranwala District,Punjab
74.1817029,32.1569379,Government City College For Women,Old Town[Androon Shehar],",",Gujranwala,Gujranwala District,Punjab
74.20783057,32.16004974,Ataleeq Taalimi Markaz,71-E Near Zero Point Pasroor Road Satellite Town ,",",Gujranwala,Gujranwala District,Punjab
74.20396819,32.16057653,Government College,Block-C Satellite Town,",",Gujranwala,Gujranwala District,Punjab
74.20927897,32.16198432,Al-Badar Cadet High School,150/D Circular Rd ,",",Gujranwala,Gujranwala District,Punjab
74.20564189,32.16269275,Government Girls High School,Markazi Jamia Masjid Rd Satellite Town,",",Gujranwala,Gujranwala District,Punjab
74.20881226,32.16334214,The Elite School,162 Circular Rd ,",",Gujranwala,Gujranwala District,Punjab
74.20725658,32.16525622,Allied School Satellite Town Campus,Circular Rd ,",",Gujranwala,Gujranwala District,Punjab
74.20729816,32.15791169,Gujranwala Medical College,Pasrur Rd ,",",Gujranwala,Gujranwala District,Punjab
74.21103179,32.14667096,Emirates College,Main Rd ,",",Gujranwala,Gujranwala District,Punjab
74.21081185,32.14638027,White House School,32 Z-Block Main Road,",",Gujranwala,Gujranwala District,Punjab
74.11395192,32.1575393,Jadeed Bhindar Ideal High School,Ladhe Wala Waraich ,",",Gujranwala,Gujranwala District,Punjab
74.11767483,32.15694891,Government Primary School,Ladhe Wala Waraich ,",",Gujranwala,Gujranwala District,Punjab
74.12730396,32.15696707,Jinnah Oxford Montessori School,Gujranwala - Hafizabad Rd Ladhe Wala Waraich,",",Gujranwala,Gujranwala District,Punjab
74.12878051,32.15713056,Allied Group of Schools,Ladhe Wala Waraich,",",Gujranwala,Gujranwala District,Punjab
74.12739784,32.1558544,High Aims School System,Ladhe Wala Waraich,",",Gujranwala,Gujranwala District,Punjab
74.12992984,32.15630855,National Cadet School,Ladhe Wala Waraich,",",Gujranwala,Gujranwala District,Punjab
74.12526011,32.15962834,Govt Primary School,Ladhe Wala Waraich ,",",Gujranwala,Gujranwala District,Punjab
74.17211786,32.1755147,Govt. High School,Jinah Rd Dhule,",",Gujranwala,Gujranwala District,Punjab
74.17533651,32.17598691,BIBI N BABA SCOOL MT BRANCH,Model Town,",",Gujranwala,Gujranwala District,Punjab
74.17657032,32.17512421,The Educators Model Town campus,325-A Block Model Town,",",Gujranwala,Gujranwala District,Punjab
74.18107643,32.17617761,Govt. Ayesha-tul-Binaat Girls Degree College,9th Ave Model Town,",",Gujranwala,Gujranwala District,Punjab
74.18088332,32.173871,Government Comprehensive High School,Model Town Rd Model Town,",",Gujranwala,Gujranwala District,Punjab
74.17999327,32.17195272,Allied School Model Town Campus,",",",",Gujranwala,Gujranwala District,Punjab
74.19382542,32.16903752,Punjab College for Women Campus I,Highway Officers Colony ,",",Gujranwala,Gujranwala District,Punjab
74.20052151,32.17040326,St. Joseph's Urdu High School,Abu Bakar Town ,",",Gujranwala,Gujranwala District,Punjab
74.19956803,32.16818384,Punjab College of Information Technology,Opp. Taj Marriage Hall Circular Rd ,",",Gujranwala,Gujranwala District,Punjab
74.20746446,32.17163487,Government Sir Syed Girls High School,Popular Nursery Town ,",",Gujranwala,Gujranwala District,Punjab
74.20327485,32.17721982,Government Girls School,Mohalla Kashmir Park,",",Gujranwala,Gujranwala District,Punjab
74.19443965,32.17944462,International Institute for Information Technology (IIIT),DC Rd ,",",Gujranwala,Gujranwala District,Punjab
74.19367522,32.18003487,Jadeed Dastgir Ideal High School,Jinnah Road Link D. C. Road ,",",Gujranwala,Gujranwala District,Punjab
74.19317633,32.1794083,Civil Cadet School,DC Rd Civil Lines,",",Gujranwala,Gujranwala District,Punjab
74.18953121,32.17925166,Allied School GUJ Peoples Colony Campus,Gill Rd ,",",Gujranwala,Gujranwala District,Punjab
74.18346405,32.18839777,Quaid-e-Azam Public College Gujranwala,G.T. Rd ,",",Gujranwala,Gujranwala District,Punjab
74.18278277,32.18630031,Junior School,Quaid-i-Azam Divisional Public School Dc Rd,",",Gujranwala,Gujranwala District,Punjab
74.18466032,32.18648191,Girls College,Quaid-i-Azam Divisional Public School DC Rd ,",",Gujranwala,Gujranwala District,Punjab
74.18168843,32.18992317,Senior School,Quaid-i-Azam Divisional Public School Service Rd[G.T Rd],",",Gujranwala,Gujranwala District,Punjab
74.17697847,32.19892068,Swidish Institute of Technology,Samnabad Service Rd[G.T Rd],",",Gujranwala,Gujranwala District,Punjab
74.15299416,32.19035899,University Of The Punjab - Gujranwala Campus,Near Ali Pur Chowk NH 5 ,",",Gujranwala,Gujranwala District,Punjab
74.15554225,32.19236557,LogicS Computer Solutions,Shalimar Town Bypass road ,",",Gujranwala,Gujranwala District,Punjab
74.18916643,32.20149902,Board of Intermediate & Secondary Education,Faiz Alam Town ,",",Gujranwala,Gujranwala District,Punjab
74.19022858,32.20429516,Pakistan International Public School,Lohianwala Sialkot Bypass,",",Gujranwala,Gujranwala District,Punjab
74.19242799,32.20488524,GIFT University,Sialkot Bypass ,",",Gujranwala,Gujranwala District,Punjab
74.19276662,32.16551998,Senior Superintendent Police Offices,Kacheri Road [Court Road],",",Gujranwala,Gujranwala District,Punjab
74.19341706,32.1654144,Shahid Fruit Chart,Hospital Road Senior Superintendent Police Offices,",",Gujranwala,Gujranwala District,Punjab
74.1974102,32.16974703,Session Court,Civil Lines ,",",Gujranwala,Gujranwala District,Punjab
74.19492982,32.16811515,Chemma Heart Complex,Zia Ul Haq Road,",",Gujranwala,Gujranwala District,Punjab
74.19509277,32.16764233,Lords Hotel,Zia Ul Haq Road,",",Gujranwala,Gujranwala District,Punjab
74.19622164,32.16761026,Excise & Taxation Office,Sialkot Road,",",Gujranwala,Gujranwala District,Punjab
74.19450335,32.1707988,Dr. Rashida Ch. Hospital & Maternity,Hospital Rd ,",",Gujranwala,Gujranwala District,Punjab
74.1952356,32.17262304,Chatha Hospital,Chatha Colony,",",Gujranwala,Gujranwala District,Punjab
74.13206991,32.25641625,F. G. Degree College,Phase II Rahwali Cantonments,",",Gujranwala,Gujranwala District,Punjab
74.13069393,32.25183709,Askari II Mosque,4th Ave Rahwali Cantonments,",",Gujranwala,Gujranwala District,Punjab
74.11004696,32.24668264,Cantt Sports Complex,Rahwali Cantonments,",",Gujranwala,Gujranwala District,Punjab
74.11280092,32.24341026,Aviation Officers Mess,Rahwali Cantonments,",",Gujranwala,Gujranwala District,Punjab
74.11105681,32.24171732,Inter Services Selection Board,6th Ave Rahwali Cantonments,",",Gujranwala,Gujranwala District,Punjab
74.10527665,32.243653,Hathi Park,Rahwali Cantonments,",",Gujranwala,Gujranwala District,Punjab
74.10472479,32.24962484,Army Public School,5th Ave Rahwali Cantonments,",",Gujranwala,Gujranwala District,Punjab
74.09917228,32.2497323,Sarhang Shopping Center,5th Ave Rahwali Cantonments,",",Gujranwala,Gujranwala District,Punjab
74.131338,32.23629089,Rahwali Cantonment Airport,Airbase Rd Rahwali Cantonments,",",Gujranwala,Gujranwala District,Punjab
74.16867703,32.22647626,Graveyard,N5,",",Gujranwala,Gujranwala District,Punjab
74.16940995,32.22415107,Honda Gujranwala,N5,",",Gujranwala,Gujranwala District,Punjab
74.16977406,32.22297228,The College Of Law,Near Regional Tax Office G.T Road,",",Gujranwala,Gujranwala District,Punjab
74.16996181,32.22197444,Jehangir Marriage Hall,N5,",",Gujranwala,Gujranwala District,Punjab
74.1671247,32.22060445,Haq Brothers,Haq Brothers Mandiala Warriach Rd Grand Truck Rd,",",Gujranwala,Gujranwala District,Punjab
74.17092472,32.21955099,Friends Hospital,N5,",",Gujranwala,Gujranwala District,Punjab
74.1719339,32.21976543,Subhan Motors,N6,",",Gujranwala,Gujranwala District,Punjab
74.17306244,32.21723073,Medi Citi Hospital,N7,",",Gujranwala,Gujranwala District,Punjab
74.17147458,32.21720179,K & T Auto Garage,N5 Gulshan Colony,",",Gujranwala,Gujranwala District,Punjab
74.17193256,32.21605185,Mehr CNG,N5 Gulshan Colony,",",Gujranwala,Gujranwala District,Punjab
74.1691947,32.21473567,Y-Man Engineering Company,Radiala Minor,",",Gujranwala,Gujranwala District,Punjab
74.1722095,32.21444406,Meezan Al-Watni Marble,Canal Bank Rd ,",",Gujranwala,Gujranwala District,Punjab
74.17248242,32.21413317,Meezan Al-Watni Wheel Balancing,N5 ,",",Gujranwala,Gujranwala District,Punjab
74.17363107,32.21380468,Ch. Rehmat Petroleum,N5 ,",",Gujranwala,Gujranwala District,Punjab
74.26296412,31.61244168,Abu Bakar Block,Abu bakar blockMiraj parkBegum KotShahdra,",",Lahore,LahoreDistrict,Punjab
74.318,31.5058,Ahmed Block,Masood Farooqi RoadGarden Town,",",Lahore,LahoreDistrict,Punjab
74.011651,31.257355,Wall's Ice Cream Factory,N5 ,",",Lahore,LahoreDistrict,Punjab
74.01150227,31.25092848,Caltex Pump,N5 Opposite of Ghazi Fabrics LtdDINA NATH,",",Lahore,LahoreDistrict,Punjab
74.01458144,31.2507909,Ghazi Fabrics Ltd,N5DINA NATH,",",Lahore,LahoreDistrict,Punjab
74.01641071,31.25556946,Kashmir Feeds,N5,",",Lahore,LahoreDistrict,Punjab
74.01936114,31.24756225,Shahtaj Textile Mills Ltd,N5 Multan RoadDINA NATH,",",Lahore,LahoreDistrict,Punjab
74.02359903,31.25698188,Footlib Private Limited,45 Km Multan Rd,",",Lahore,LahoreDistrict,Punjab
74.03388262,31.26264055,Emirates Supply Chain Services Pvt Ltd,",",",",Lahore,LahoreDistrict,Punjab
74.03321475,31.26349345,Rana Kamran Filling Station,Multan Rd,",",Lahore,LahoreDistrict,Punjab
74.03202921,31.26430048,AMTC Private Limited,N5Nathe Khalsa ,",",Lahore,LahoreDistrict,Punjab
74.03625369,31.26781284,Qabristan,N5,",",Lahore,LahoreDistrict,Punjab
74.03755188,31.26743685,Caltex Pump,Pattoki Bypass,",",Lahore,LahoreDistrict,Punjab
74.03867841,31.26898665,Lahore Feeds,Pattoki Bypass,",",Lahore,LahoreDistrict,Punjab
74.03736413,31.27524522,Oasis Golf & Aqua Resort,Multan Rd,",",Lahore,LahoreDistrict,Punjab
74.0415591,31.27607049,Jheel,Near Oasis Golf & Aqua Resort Multan Rd,",",Lahore,LahoreDistrict,Punjab
74.04886007,31.27124254,Bemsol Private Limited,Multan Rd,",",Lahore,LahoreDistrict,Punjab
74.05868769,31.28154005,Honda Atlas Cars Pakistan Limited,43 km Multan Rd Manga Pakistan,",",Lahore,LahoreDistrict,Punjab
74.06437397,31.29038786,Al-Madina Family Restaurant And Bar-B-Q,Al-Madina Family Restaurant And Bar-B-Q  Multan RdManga bypass,",",Lahore,LahoreDistrict,Punjab
74.06555414,31.29424762,Highway Resting Place,Multan Road By pass Manga Mandi,",",Lahore,LahoreDistrict,Punjab
74.06997979,31.29953278,Burj Bank Limited,Multan Road By pass Manga Mandi,",",Lahore,LahoreDistrict,Punjab
74.07096148,31.30230587,Manga Mandi High School,Lahore Rd Manga Mandi,",",Lahore,LahoreDistrict,Punjab
74.00150299,31.24349877,PSO Al-Faisal,",",",",Lahore,LahoreDistrict,Punjab
74.0150857,31.24590202,DINA NATH,",",",",Lahore,LahoreDistrict,Punjab
73.99300575,31.24564519,Qutta Textile Mills Ltd,",",",",Lahore,LahoreDistrict,Punjab
73.99219036,31.24412252,Lahore Spinning Mills Ltd,",",",",Lahore,LahoreDistrict,Punjab
73.9901948,31.24370057,Nishat Chunian Ltd Unit 1,",",",",Lahore,LahoreDistrict,Punjab
73.98836017,31.24370974,Generatec Pakistan Ltd.,",",",",Lahore,LahoreDistrict,Punjab
73.98608565,31.24542505,Serai Chhimba Remains,",",",",Lahore,LahoreDistrict,Punjab
73.98928285,31.24095786,Taj Textile Mills Ltd,",",",",Lahore,LahoreDistrict,Punjab
73.9893043,31.23854531,Nishat Chunain Hospital,Multan Rd Pakistan,",",Lahore,LahoreDistrict,Punjab
73.98717999,31.23724269,Nishat High School,",",",",Lahore,LahoreDistrict,Punjab
73.98718536,31.23556393,Pakistan CNG,",",",",Lahore,LahoreDistrict,Punjab
73.98657918,31.23528413,Petrol Pump,",",",",Lahore,LahoreDistrict,Punjab
73.98627341,31.23500434,Four Star CNG,Multan Rd Lahore Pakistan,",",Lahore,LahoreDistrict,Punjab
73.99582744,31.23763714,Mian Textile Mills Ltd,",",",",Lahore,LahoreDistrict,Punjab
73.99436831,31.23607765,Ejaz Textile Mills Ltd,",",",",Lahore,LahoreDistrict,Punjab
73.98777008,31.23447226,AL-KHAIR GLOBAL PVT. LTD.,",",",",Lahore,LahoreDistrict,Punjab
73.98563504,31.23212376,LESCO Grid Station Bhai bheiro,",",",",Lahore,LahoreDistrict,Punjab
73.99326324,31.22513296,DHELM,",",",",Lahore,LahoreDistrict,Punjab
73.98674011,31.2459754,SARAI CHANBA,",",",",Lahore,LahoreDistrict,Punjab
73.98047447,31.24537001,Nishat Chunia Private Limited,",",",",Lahore,LahoreDistrict,Punjab
73.98023844,31.24377395,Hussain Textile Mills Ltd Unit 6,",",",",Lahore,LahoreDistrict,Punjab
73.97550702,31.24316855,Millat Batteries,49 km off Multan Road Pakistan,",",Lahore,LahoreDistrict,Punjab
73.98053885,31.24793832,NISHAT MOSQUE,",",",",Lahore,LahoreDistrict,Punjab
73.9621067,31.25015802,M Fayyaz Agricultural Farm,",",",",",",Kasur District,Punjab
73.95000458,31.24979113,KAMAN GILL,",",",",Lahore,LahoreDistrict,Punjab
73.94298792,31.23876547,MAIGA,",",",",Lahore,LahoreDistrict,Punjab
73.93335342,31.24168253,SAMIANWALA,",",",",Lahore,LahoreDistrict,Punjab
73.90455723,31.25778897,Ravi River,",",",",Lahore,LahoreDistrict,Punjab
73.979702,31.22164654,Ghani Glass Limited,Bhai Pheru bypass Pakistan,",",Lahore,LahoreDistrict,Punjab
73.97182703,31.22047213,Dost Steels Limited,N5 near Rafhan Foods,",",Lahore,LahoreDistrict,Punjab
73.96899462,31.22129789,Rafhan Foods,Multan Road,",",Lahore,LahoreDistrict,Punjab
74.01477,31.25552,BSL Lahore,N5 Near Walls Ice cream factory,",",",",LahoreDistrict,Punjab
74.28477712,31.72129886,DIL Community Model School Khuda Ki Basti,Kala Shah Kaku ,",",",",Sheikhupura District,Punjab
74.26264395,31.73477937,Govt Boys Primary School,Kala Shah Kaku ,",",",",Sheikhupura District,Punjab
74.2628186,31.7379331,Government Girls Primary School,Kala Shah Kaku ,",",",",Sheikhupura District,Punjab
74.263528,31.742007,Jinnah Model High School ,N5Hakeem Pura ,",",",",Sheikhupura District,Punjab
74.26021274,31.75866388,Government Apprentice Training Centre,Grand Trunk Rd Kala Shah Kaku,",",",",Sheikhupura District,Punjab
74.2637943,31.7672747,Al-Tahir Public Model High School,N5 Muridke Ferozwala ,",",",",Sheikhupura District,Punjab
74.255583,31.791531,The Smart School Muridke Campus,Opposite Abdul Ghani Hospital Main Grand Trunk Rd,",",",",Sheikhupura District,Punjab
74.25543816,31.79102488,Allied Schools System,Grand Trunk Rd Muridke,",",",",Sheikhupura District,Punjab
74.25571,31.792469,Muridke Grammar School ,N5 Ferozwala Muridke,",",",",Sheikhupura District,Punjab
74.254119,31.793265,L-MUSLIM IDEAL SCHOOL,Muridke Street Number 13 Muridke,",",",",Sheikhupura District,Punjab
74.25741079,31.80110574,Govt Elementary School Muridke,Muridike ,",",",",Sheikhupura District,Punjab
74.2598369,31.80371841,Government Girls Higher Secondary School,Muridike ,",",",",Sheikhupura District,Punjab
74.2522316,31.80770188,Government Boys Higher Secondary School,Grand Trunk Rd Muridike ,",",",",Sheikhupura District,Punjab
74.20353417,31.89452931,Govt Primary School,Darajakey BaigPur Rd,",",",",Sheikhupura District,Punjab
74.23638356,31.90339396,The Educators,N5 Sadhoke Kamoke ,",",Gujranwala,Gujranwala District,Punjab
74.15408246,32.18878536,Mughal Engineering Works,N5 Opposite University of Punjab Gujranwala Campus,",",Gujranwala,Gujranwala District,Punjab
74.15757403,32.19110692,Jahangir Engneering Company Private Ltd,N5 Ghulam Muhammad Town,",",Gujranwala,Gujranwala District,Punjab
74.15613435,32.19150018,MCB Shalimar Town,N5 Shalimar Town,",",Gujranwala,Gujranwala District,Punjab
74.15890977,32.19270264,Ahsan Palace Banquet Hall,N5Ghulam Muhammad Town,",",Gujranwala,Gujranwala District,Punjab
74.16128151,32.19533733,Kotli Peer Ahmad Shah Bus Stop,N5 Kotli Pir Ahmed Shah,",",Gujranwala,Gujranwala District,Punjab
74.16307859,32.193938,Babo jee Ghulam Nabi Sarkar,Ghulam Muhammad Town ,",",Gujranwala,Gujranwala District,Punjab
74.16405592,32.19633688,Qadria Castings Api Groups,G.T Road near Maqsood floor mil,",",Gujranwala,Gujranwala District,Punjab
74.16473351,32.1966833,Akbar Steels,N5 Kotli Pir Ahmed Shah,",",Gujranwala,Gujranwala District,Punjab
74.16573934,32.19914254,Ghori Steel Mill,N5 Gujranwala Pakistan,",",Gujranwala,Gujranwala District,Punjab
74.16686721,32.19924922,TRUST AUTO INDUSTRY,Near opposite Ghori steel mills pindi bypass road,",",Gujranwala,Gujranwala District,Punjab
74.16702278,32.20000161,Ikhlaq Furniture,N5,",",Gujranwala,Gujranwala District,Punjab
74.16727625,32.2002683,Honda Motorcycle Repair Shop,Sher Shah Suri Rd,",",Gujranwala,Gujranwala District,Punjab
74.16566625,32.20073528,Nawaz Steel Mills,Sher Shah Suri Rd ,",",Gujranwala,Gujranwala District,Punjab
74.17069204,32.20236998,Used Tires Market,N5 Bajwa Industrial Zone,",",Gujranwala,Gujranwala District,Punjab
74.17147659,32.20242899,Bus Body Maker,N5 Bajwa Industrial Zone,",",Gujranwala,Gujranwala District,Punjab
74.17179577,32.20303043,White Palace Marriage Hall,N5 Bajwa Industrial Zone,",",Gujranwala,Gujranwala District,Punjab
74.17253539,32.20278248,JICO,N5Opposite of Mark-E-Islami,",",Gujranwala,Gujranwala District,Punjab
74.17293504,32.20257368,Javaid Industrial Company,N5,",",Gujranwala,Gujranwala District,Punjab
74.17263396,32.20347187,Markaz e Islami,Markaz-E-Islami Road,",",Gujranwala,Gujranwala District,Punjab
74.1758325,32.20233367,PSO Filling Station,G.T. RdSamnabad,",",Gujranwala,Gujranwala District,Punjab
74.17700563,32.20180513,Lohianwala Bus Stop,G.T. Rd,",",Gujranwala,Gujranwala District,Punjab
74.17643063,32.20055314,Sharp Industry,Service Rd [G.T Road],",",Gujranwala,Gujranwala District,Punjab
74.18256149,32.20276659,Musafat Associates,Bilal Town ,",",Gujranwala,Gujranwala District,Punjab
74.18341711,32.20298221,Baoo Jee CNG Station,Faisal Town,",",Gujranwala,Gujranwala District,Punjab
74.19014946,32.20210841,Board of Intermediate & Secondary Education Cricket Ground,Faisal Town ,",",Gujranwala,Gujranwala District,Punjab
74.19447586,32.20344066,Royal Garden Mosque,Sialkot Bypass,",",Gujranwala,Gujranwala District,Punjab
74.17454906,32.17193059,Christian's Cemetery,Gujranwala Pakistan,",",Gujranwala,Gujranwala District,Punjab
74.17658988,32.1698563,Mercury Consulting Pakistan,Gondlanwala Road,",",Gujranwala,Gujranwala District,Punjab
74.17904511,32.16865268,Mosque,Model Town Gali # 4 NearGondlan Wala Rd,",",Gujranwala,Gujranwala District,Punjab
74.17891368,32.16838704,Raza Traders,Gondlan Wala Rd Mohalla Raitawala Model Town,",",Gujranwala,Gujranwala District,Punjab
74.17951785,32.16806861,Hafiz Spring Works,Gali beri wali Gondlawala Road Gujranwala,",",Gujranwala,Gujranwala District,Punjab
74.18411516,32.16654057,Sheikh House,Mohalla Raitanwala,",",Gujranwala,Gujranwala District,Punjab
74.17673573,32.17234436,Igraphix Designers & Printers,Model Town Rd ,",",Gujranwala,Gujranwala District,Punjab
74.17656943,32.17322298,Jinnah Memorial Trust Hospital,Cemetery Rd ,",",Gujranwala,Gujranwala District,Punjab
74.17665191,32.17350167,Fazal Din,Jinnah Memorial Trust HospitalModel Town,",",Gujranwala,Gujranwala District,Punjab
74.17166099,32.17391089,Science solution academy,Jinah Road,",",Gujranwala,Gujranwala District,Punjab
74.17228661,32.17453012,Jamia Masjid Noor-ul-Islam,207-A Model Town Jinnah Rd ,",",Gujranwala,Gujranwala District,Punjab
74.17194866,32.17453806,Mizar Mufti M Sharif Hazarvi,Jinnah Rd,",",Gujranwala,Gujranwala District,Punjab
74.17427212,32.17578729,Model Town Cemetery,Model Town ,",",Gujranwala,Gujranwala District,Punjab
74.17561859,32.17763981,Sheesh Mahal Marriage Hall,Industrial Estate,",",Gujranwala,Gujranwala District,Punjab
74.17477034,32.17816026,SUPER MILLAT FANS INDUSTRY,75 Jinnah Rd ,",",Gujranwala,Gujranwala District,Punjab
74.17510159,32.17822382,Gujranwala Food Industries Ltd. (JOJO Foods),Jinnah Rd ,",",Gujranwala,Gujranwala District,Punjab
74.17867497,32.17357715,Model Town Park,Model Town Square,",",Gujranwala,Gujranwala District,Punjab
74.17787097,32.17250385,Allah Hu Park,Model Town Square,",",Gujranwala,Gujranwala District,Punjab
74.17773686,32.17051954,Wasa Water Tank,Model Town ,",",Gujranwala,Gujranwala District,Punjab
74.17895727,32.17111211,Ladies Park Model Town,Model Town Rd Model Town,",",Gujranwala,Gujranwala District,Punjab
74.17945549,32.17275075,Model Town Market,Model Town Square,",",Gujranwala,Gujranwala District,Punjab
74.18032654,32.17500007,Jamia Masjid Mukaram,Model Town,",",Gujranwala,Gujranwala District,Punjab
74.18121569,32.17462547,PMS Pvt Ltd,Model Town Rd,",",Gujranwala,Gujranwala District,Punjab
74.18061778,32.17720505,Offices (Naubahar Bottling Company),Street # 15  Industrial EstateModel Town,",",Gujranwala,Gujranwala District,Punjab
74.18262117,32.17797297,Hyundai Motors,Service Rd[G.T Road] Industrial EstateModel Town,",",Gujranwala,Gujranwala District,Punjab
74.18298595,32.17836798,Suzuki Motors,Service Rd[G.T Road] Industrial EstateModel Town,",",Gujranwala,Gujranwala District,Punjab
74.18281563,32.17860408,Engineer Ashraf Butt,Service Rd[G.T Road] Industrial EstateModel Town,",",Gujranwala,Gujranwala District,Punjab
74.18281026,32.17906947,Sapna Marriage Lawn,Service Rd[G.T Road] Industrial EstateModel Town,",",Gujranwala,Gujranwala District,Punjab
74.18266006,32.17951784,Pak Shuttle Company,Service Rd[G.T Road] Industrial EstateModel Town,",",Gujranwala,Gujranwala District,Punjab
74.18244682,32.18039753,A-One Silencer,Small Industrial Estate Model TownG.T. Road,",",Gujranwala,Gujranwala District,Punjab
74.18032184,32.17500745,Jamia Masjid Mukaram,Model Town Rd Model Town,",",Gujranwala,Gujranwala District,Punjab
74.17817071,32.17494161,Pizza Hut,Model Town Square,",",Gujranwala,Gujranwala District,Punjab
74.182937,32.17401987,Trust Plaza,Model Town Rd Model Town,",",Gujranwala,Gujranwala District,Punjab
74.18812506,32.1748718,Passport Office,Bukhari Rd Civil Lines,",",Gujranwala,Gujranwala District,Punjab
74.18812506,32.17538942,Civil Lines Cemetery,Bukhari Rd Civil Lines,",",Gujranwala,Gujranwala District,Punjab
74.19161998,32.1672081,Munir Chowk,Hospital Road,",",Gujranwala,Gujranwala District,Punjab
74.19140507,32.16763637,Digicare Computer Consultants & Solution Providers,Hasham Plaza Hospital Rd,",",Gujranwala,Gujranwala District,Punjab
74.19164345,32.16960854,DHQ Hospital,Civil Lines,",",Gujranwala,Gujranwala District,Punjab
74.19332385,32.1686402,Sundas Foundation,Highway Officers Colony,",",Gujranwala,Gujranwala District,Punjab
74.19372786,32.1663666,Gujranwala Fort,",",",",Gujranwala,Gujranwala District,Punjab
74.19575997,32.17249704,Dr. Nabila Bashir,Hospital Rd ,",",Gujranwala,Gujranwala District,Punjab
74.19810154,32.17154746,Gujranwala Session Court,Session Court Rd,",",Gujranwala,Gujranwala District,Punjab
74.19550851,32.17503015,City Sports Complex,Hospital Rd ,",",Gujranwala,Gujranwala District,Punjab
74.19538379,32.16612223,DCO Office,Sialkot Rd ,",",Gujranwala,Gujranwala District,Punjab
74.19676512,32.16377222,District Jail,Satellite Town,",",Gujranwala,Gujranwala District,Punjab
74.1930791,32.1630621,Liberty Market,",",",",Gujranwala,Gujranwala District,Punjab
74.19358168,32.15979211,Tikoni Ground,Satellite Town B block ,",",Gujranwala,Gujranwala District,Punjab
74.19512462,32.1579222,Rana Ahsen's House,Satellite Town Poundanwala Chowk ,",",Gujranwala,Gujranwala District,Punjab
74.1977552,32.15941802,Dhobi Ghaat,Block-Esatellite Town,",",Gujranwala,Gujranwala District,Punjab
74.20124307,32.16038334,Goldsmith Ground,Block-D Sattelite Town,",",Gujranwala,Gujranwala District,Punjab
74.203014,32.1585685,Post Office Satellite Town,Satellite Town Disposal Rd,",",Gujranwala,Gujranwala District,Punjab
74.20674428,32.16143691,Cricket Ground,Block-C Sattellite Town,",",Gujranwala,Gujranwala District,Punjab
74.20607105,32.1619251,YouthAffairs Pakistan,Old Morgue Rd ,",",Gujranwala,Gujranwala District,Punjab
74.20239341,32.16168413,Tipu Chowk,Markazi Jamia Masjid RdSatellite town,",",Gujranwala,Gujranwala District,Punjab
74.20275752,32.16191289,Satellite Town Mall,Markazi Jamia Masjid RdSatellite town,",",Gujranwala,Gujranwala District,Punjab
74.20346159,32.1623761,Markazi Jamia Masjid,Markazi Jamia Masjid RdSatellite town,",",Gujranwala,Gujranwala District,Punjab
74.20280445,32.162627,Gujranwala Broast,C BlockSateelite Town,",",Gujranwala,Gujranwala District,Punjab
74.2036242,32.16293041,Patiala Jeweller,Satellite town market,",",Gujranwala,Gujranwala District,Punjab
74.20311123,32.1632148,Bonanza,Main satellite Town Market Markazi Jamia Masjid Road,",",Gujranwala,Gujranwala District,Punjab
74.20344181,32.16342766,Main Market Satellite Town,Block-B,",",Gujranwala,Gujranwala District,Punjab
74.20316923,32.16365103,D Park,Block-D  Satellite Town,",",Gujranwala,Gujranwala District,Punjab
74.20252349,32.16423343,Nishat Linen,Block A Taj Shopping Center,",",Gujranwala,Gujranwala District,Punjab
74.20426089,32.16339219,Sony World Gujranwala,C Block,",",Gujranwala,Gujranwala District,Punjab
74.16415751,32.24699938,Rahwali Kulfi,N5 Rahwali,",",Gujranwala,Gujranwala District,Punjab
74.16427452,32.24449918,Rahwali Bus stop,Rahwali,",",Gujranwala,Gujranwala District,Punjab
74.16722026,32.24572844,Sial Maternity Center,Railway Rd Rahwali,",",Gujranwala,Gujranwala District,Punjab
74.16331027,32.24517861,Khokhar Fish & Barbecue,Service Rd Rahwali,",",Gujranwala,Gujranwala District,Punjab
74.16337933,32.24499315,Khokhar Sweets,Service Rd Rahwali,",",Gujranwala,Gujranwala District,Punjab
74.16182633,32.2450476,Alfalah Sweets Rahwali,Service Rd Rahwali,",",Gujranwala,Gujranwala District,Punjab
74.16083928,32.24503796,Chicken Dabu,Service Rd Rahwali,",",Gujranwala,Gujranwala District,Punjab
74.16151855,32.24440446,Engro Fertilizers Pvt. Ltd,Kent Plaza Rahwali Gate Rd Rahwali Cantonments,",",Gujranwala,Gujranwala District,Punjab
74.1615266,32.2443211,Pakistan IT Solutions (Pvt) Ltd,PITS (Pakistan IT Solutions (Pvt.) Ltd. Service Road Rahwali,",",Gujranwala,Gujranwala District,Punjab
74.16039202,32.24426325,Pizza Hot,Service Rd Rahwali,",",Gujranwala,Gujranwala District,Punjab
74.15610787,32.24585463,Bricks Kiln,Muslim Town Rahwali Cantonments,",",Gujranwala,Gujranwala District,Punjab
74.18551192,32.1708777,Meezan Bank Limited,Kashmir Plaza Near Ghalla Mandi Service Rd ,",",Gujranwala,Gujranwala District,Punjab
74.18657139,32.1708777,Al-Jannat Photostat & Mobile Centre,G.T. Rd Bank Square Gujranwala Pakistan,",",Gujranwala,Gujranwala District,Punjab
74.18377385,32.17073012,Naqsh Bandia Masjid,General bus stand road opposite of Dreams Tiles,",",Gujranwala,Gujranwala District,Punjab
74.18350831,32.17127047,Dream Tiles,119-b Model Town Opposite General Bus Stand,",",Gujranwala,Gujranwala District,Punjab
74.18551058,32.17177336,Classic Concetps,Yousaf Plaza 2nd Floor Near General Bus Stand G.T Road,",",Gujranwala,Gujranwala District,Punjab
74.18623611,32.1720651,Faysal Bank,Zia Plaza ,",",Gujranwala,Gujranwala District,Punjab
74.18627635,32.17223992,SB International (UK) Ltd,Above DHL G.T Road Choudry Plaza,",",Gujranwala,Gujranwala District,Punjab
74.18539859,32.17246866,City Tour Bus Stop,G.T. Rd ,",",Gujranwala,Gujranwala District,Punjab
74.18509819,32.17250045,Pakistan Cargo Services,AR Plaza G.T. Rd Larri Adda Model Town,",",Gujranwala,Gujranwala District,Punjab
74.18486886,32.17260148,Citi Bank,Gujranwala Bus Stand Road,",",Gujranwala,Gujranwala District,Punjab
74.1860611,32.17266391,Tire Shop,Service Rd [G.T. Rd ],",",Gujranwala,Gujranwala District,Punjab
74.18608122,32.1728637,Tarpal House,Service Rd [G.T. Rd ],",",Gujranwala,Gujranwala District,Punjab
74.18599002,32.17319404,Suffian Car Decorators,Service Rd [G.T. Rd ],",",Gujranwala,Gujranwala District,Punjab
74.18594576,32.17327236,Khalid & Company,Service Rd [G.T. Rd ],",",Gujranwala,Gujranwala District,Punjab
74.18473743,32.17340745,Baba Bakers & Sweets,Near Trust Plaza G.T Road ,",",Gujranwala,Gujranwala District,Punjab
74.18608859,32.1737724,Super Golden Plaza,Service Rd [G.T. Rd ],",",Gujranwala,Gujranwala District,Punjab
74.18454967,32.17388649,Pizza Cottage,Office No.1 Main Block Trust Plaza General Bus Stand Rd ,",",Gujranwala,Gujranwala District,Punjab
74.18383084,32.17357205,Softix Technologies,General Bus Stand Rd,",",Gujranwala,Gujranwala District,Punjab
74.18447658,32.17442852,KFC Restaurant,G.D.A. Trust Plaza ,",",Gujranwala,Gujranwala District,Punjab
74.18576404,32.17463285,Nobel Currency,Service Rd [G.T. Rd ],",",Gujranwala,Gujranwala District,Punjab
74.18394551,32.17447166,Gujaranwala Chamber of Commerce,Model Town Road ,",",Gujranwala,Gujranwala District,Punjab
74.18345198,32.17460334,State Bank of Pakistan,Trust PlazaModel Town Road,",",Gujranwala,Gujranwala District,Punjab
74.18390527,32.17554551,Sangum Cinema,Model Town Road  Near G.T. Rd,",",Gujranwala,Gujranwala District,Punjab
74.1828002,32.17540248,Model Town Police Station,Model Town Rd ,",",Gujranwala,Gujranwala District,Punjab
74.18215916,32.17626518,Government Social Security Hospital,PTCL Exchange,",",Gujranwala,Gujranwala District,Punjab
74.18334201,32.17612442,Gujranwala Electric Power Company,Industrial Estate ,",",Gujranwala,Gujranwala District,Punjab
74.18327764,32.17640821,PTCL Exchange,Industrial Estate ,",",Gujranwala,Gujranwala District,Punjab
74.18637425,32.17644113,Ticket Office,Gujranwala City Railway Station Station Rd ,",",Gujranwala,Gujranwala District,Punjab
74.18571979,32.17662729,City Station Park,Station Rd,",",Gujranwala,Gujranwala District,Punjab
74.18802246,32.17666702,Train Station Park,Station Rd,",",Gujranwala,Gujranwala District,Punjab
74.18830007,32.17783959,Railway's Rest House,",",",",Gujranwala,Gujranwala District,Punjab
74.18982491,32.17703479,Medcare International Hospital,3 Gill Rd ,",",Gujranwala,Gujranwala District,Punjab
74.18527991,32.17995995,Industry,Service Rd ,",",Gujranwala,Gujranwala District,Punjab
74.1837658,32.18110751,Younis Petrolium Services,Service Rd ,",",Gujranwala,Gujranwala District,Punjab
74.18367192,32.18134815,Mehar CNG Station,Service Rd ,",",Gujranwala,Gujranwala District,Punjab
74.19106811,32.18236176,Adil Hospital,Lalazar Colony ,",",Gujranwala,Gujranwala District,Punjab
74.184663,32.18305187,Shalimar Advertising Company,Jinnah Rd ,",",Gujranwala,Gujranwala District,Punjab
74.18773681,32.18444115,United Bank,Jinnah Rd Dc Road chowk,",",Gujranwala,Gujranwala District,Punjab
74.18619856,32.18473058,Food Godowns,Agriculture colony Dc Road,",",Gujranwala,Gujranwala District,Punjab
74.18862864,32.18492127,Haris Medical Complex,Ehtsham Colony ,",",Gujranwala,Gujranwala District,Punjab
74.18808416,32.18562271,District Sui Gas Office,Ehtsham Colony Sui Gas Road,",",Gujranwala,Gujranwala District,Punjab
74.18812439,32.18600407,Sui Northern Gas Pipe lines,Sui Gas Road,",",Gujranwala,Gujranwala District,Punjab
74.1903238,32.18776786,Graveyard,Ehtsham Colony Sui Gas Road,",",Gujranwala,Gujranwala District,Punjab
74.1831509,32.18845622,Football Ground,Quaid-i-Azam Divisional Public School ,",",Gujranwala,Gujranwala District,Punjab
74.18188758,32.1880726,Sheikh Muhammad Younas Auditorium,Quaid-i-Azam Divisional Public School ,",",Gujranwala,Gujranwala District,Punjab
74.18084487,32.18499618,PACE,Mujahid Colony Service Rd ,",",Gujranwala,Gujranwala District,Punjab
74.18371618,32.11296314,WASA Sewage Pumping Station,Near Sardar Colony,",",Gujranwala,Gujranwala District,Punjab
74.17124122,32.11487601,Frontier Swat Goods Transport Co,Gujranwala Bypass ,",",Gujranwala,Gujranwala District,Punjab
74.166658,32.11818878,CNG Station,Sarfrazabad ,",",Gujranwala,Gujranwala District,Punjab
74.16518949,32.11938142,Petrol Pump,Sarfrazabad,",",Gujranwala,Gujranwala District,Punjab
74.16217133,32.12123111,Bismillah Hotel,N5 ,",",Gujranwala,Gujranwala District,Punjab
74.15996321,32.12174053,Vegetable & Fruit Market,Alfalah City ,",",Gujranwala,Gujranwala District,Punjab
74.15684178,32.1294654,Christian Graveyard,Christian Colony ,",",Gujranwala,Gujranwala District,Punjab
74.15710464,32.13642705,United Presbyterian Church,Gala Mehra Wala Qila Sondar Singh,",",Gujranwala,Gujranwala District,Punjab
74.15372975,32.13940859,Awan Chowk,Noshera Road,",",Gujranwala,Gujranwala District,Punjab
74.15278159,32.14322749,Al Ansar Hospital,Sadiq Colony ,",",Gujranwala,Gujranwala District,Punjab
74.1508799,32.14677826,Fuel Station,Mohalla Ghazi Abbas ,",",Gujranwala,Gujranwala District,Punjab
74.14687604,32.14849001,Timber Market,Sardar Colony,",",Gujranwala,Gujranwala District,Punjab
74.14680161,32.15357168,Idreesia Medical Complex,Gujranwala Bypass ,",",Gujranwala,Gujranwala District,Punjab
74.14622895,32.15496482,Al Taawon CNG Station,Near Alam Chowk Gujranwala Bypass Alam Chowk,",",Gujranwala,Gujranwala District,Punjab
74.14556108,32.15594353,Aalam Chowk Van Stand,",",",",Gujranwala,Gujranwala District,Punjab
74.14615016,32.15625491,Alam Chowk,Hafizabad Rd ,",",Gujranwala,Gujranwala District,Punjab
74.14724819,32.1563341,Muaaz Marriage Hall,Haider Colony ,",",Gujranwala,Gujranwala District,Punjab
74.14516278,32.15676895,Masjid Khushbo e Madina,Arif Colony Gujranwala - Hafizabad Road,",",Gujranwala,Gujranwala District,Punjab
74.14534383,32.15726511,Al Rehmat Hotel,Arif Colony ,",",Gujranwala,Gujranwala District,Punjab
74.14546587,32.16086755,Storage Sona Urea,N5,",",Gujranwala,Gujranwala District,Punjab
74.14439935,32.16109206,Alam Chowk Police Station,N5 ,",",Gujranwala,Gujranwala District,Punjab
74.14547257,32.16189161,Customer Services officer ( Wapda ),N5 ,",",Gujranwala,Gujranwala District,Punjab
74.14464075,32.16200939,Fuel Station,N5 ,",",Gujranwala,Gujranwala District,Punjab
74.14445467,32.16272038,Jamia Madeena-Tul-Ilm,N5 ,",",Gujranwala,Gujranwala District,Punjab
74.14430514,32.16843699,Bilal Flour Mills,Hasanpura Garjakh ,",",Gujranwala,Gujranwala District,Punjab
74.14582931,32.17093616,Fuel Station,N5 ,",",Gujranwala,Gujranwala District,Punjab
74.14599426,32.17452671,Citizen Marriage Hall,Gujranwala Bypass ,",",Gujranwala,Gujranwala District,Punjab
74.14746143,32.17734298,Warraich CNG Station,Near Ali Pur Byepass,",",Gujranwala,Gujranwala District,Punjab
74.14645996,32.17737391,Gujranwala Cattle Market,N5 ,",",Gujranwala,Gujranwala District,Punjab
74.1464965,32.17842417,Admor Filling Station,N5 ,",",Gujranwala,Gujranwala District,Punjab
74.14516076,32.17841055,Grain Market,N5 ,",",Gujranwala,Gujranwala District,Punjab
74.15069014,32.17630945,Graveyard,Near Muhammad Pura,",",Gujranwala,Gujranwala District,Punjab
74.15087655,32.18497575,Graveyard,Abdullahpur ,",",Gujranwala,Gujranwala District,Punjab
74.14973326,32.18531341,Hasan Travels Gujranwala,Abdullahpur ,",",Gujranwala,Gujranwala District,Punjab
74.14971851,32.1859808,Alipur Chatha Chowk,",",",",Gujranwala,Gujranwala District,Punjab
74.14971817,32.18661215,Hascol Petrol & CNG Station,Alipur chatha Chowk Bypass ,",",Gujranwala,Gujranwala District,Punjab
74.15227331,32.18513295,Hamid Plastic Industry,Raj Kot Gondlanwala Road,",",Gujranwala,Gujranwala District,Punjab
74.15349506,32.1883938,Harvester Servies,N5,",",Gujranwala,Gujranwala District,Punjab
74.19683889,32.2037289,Gold Star Factory,Sialkot Bypass,",",Gujranwala,Gujranwala District,Punjab
74.195133,32.20245566,Comfort Engineers,Opp. Royal Garden Hotel Siddiqui Street Sialkot Bypass ,",",Gujranwala,Gujranwala District,Punjab
74.21380721,32.19595017,SILVER STAR Chowk,Sialkot Bypass Sialkot Road ,",",Gujranwala,Gujranwala District,Punjab
74.2154571,32.19529676,Rescue 1122,Sialkot Bypass,",",Gujranwala,Gujranwala District,Punjab
74.21930507,32.18853056,Hussain Park,Mukhtar Colony,",",Gujranwala,Gujranwala District,Punjab
74.22031894,32.18701649,Graveyard,Islampura,",",Gujranwala,Gujranwala District,Punjab
74.22838703,32.18562044,Bricks Kiln,Mukhtar Colony,",",Gujranwala,Gujranwala District,Punjab
74.22534809,32.17858763,Mian Agro Engineering,Sialkot Chowk,",",Gujranwala,Gujranwala District,Punjab
74.22485523,32.17786854,Expert Technical Services,Sialkot Bypass,",",Gujranwala,Gujranwala District,Punjab
74.22251433,32.17623226,Graveyard,Allah Rakha Town,",",Gujranwala,Gujranwala District,Punjab
74.21612464,32.14678507,Ishtiaq Memorial Hospital,Sector Z Peoples Colony,",",Gujranwala,Gujranwala District,Punjab
74.21541117,32.14338647,Hajra Masjid,Sector Z Peoples Colony,",",Gujranwala,Gujranwala District,Punjab
74.21263441,32.13726514,Graveyard,Sector Y Peoples Colony,",",Gujranwala,Gujranwala District,Punjab
32.12274174,32.12274174,Ibrahim Trust Eye Hospital,Sialkot Bypass ,",",Gujranwala,Gujranwala District,Punjab
74.20600869,32.1187976,Saddat Mansion,",",",",Gujranwala,Gujranwala District,Punjab
74.17402066,32.17179777,Children's Family Hospital,Street 5,",",Gujranwala,Gujranwala District,Punjab
74.20181036,32.09121,Shahbaz Tikka Shop ,N5Opposite Jalil Town,",",Gujranwala,Gujranwala District,Punjab
74.21135098,32.04630363,Engro Fertilizers Warehouse,N5 ,",",Gujranwala,Gujranwala District,Punjab
74.20883439,32.05119321,More Eminabad,",",",",Gujranwala,Gujranwala District,Punjab
74.20969941,32.05198889,Haider Shoping Mall,Eminabad More,",",Gujranwala,Gujranwala District,Punjab
74.20684688,32.05449409,Jamia Masjid Habibia,Adoray RoadEminabad More,",",Gujranwala,Gujranwala District,Punjab
74.20911536,32.05748284,Mughal Factory,N5 Near Eminabad Station,",",Gujranwala,Gujranwala District,Punjab
74.2020645,32.05865297,Mumtazabad Graveyard,Eminabad More,",",Gujranwala,Gujranwala District,Punjab
74.20814507,32.06069882,Ideal Carpet Industries (Pvt) Ltd.,Near More Eminabad G.T Road,",",Gujranwala,Gujranwala District,Punjab
74.20491233,32.06122107,Ceramics Development and Training Complex,Galla Supreme Asia Opposite Benazair Road G.T Road More Amenaabad,",",Gujranwala,Gujranwala District,Punjab
74.20646936,32.06566719,Fuel Station,Eminabad More Pakistan,",",Gujranwala,Gujranwala District,Punjab
74.20646735,32.06635079,Al-Karam Hotel,Eminabad More Pakistan,",",Gujranwala,Gujranwala District,Punjab
74.19781353,32.10729275,Sultan Forte Marriage Hall,G.T. Rd ,",",Gujranwala,Gujranwala District,Punjab
74.19841435,32.10898024,Nawab Public Park,Main G T Road near upper cheenab canal,",",Gujranwala,Gujranwala District,Punjab
74.19713493,32.1105757,Super Asia Mohammad Din Sons Ltd,G.T. Rd Kot Abdullah,",",Gujranwala,Gujranwala District,Punjab
74.19408359,32.1139883,Octroi Post,G.T. RdIfhan Ji Town,",",Gujranwala,Gujranwala District,Punjab
74.19653479,32.11764499,Tokyo Tower,G.T. Rd ,",",Gujranwala,Gujranwala District,Punjab
74.19578109,32.12049993,Brands Traders,Main kangniwala G.T.Road Sarfraz Colony,",",Gujranwala,Gujranwala District,Punjab
74.19709034,32.12325909,MD Palace,G.T. Rd ,",",Gujranwala,Gujranwala District,Punjab
74.19453219,32.12379348,Powersoft,Rehmat Ullah Loan Road Near Jinnah Park G.T Road,",",Gujranwala,Gujranwala District,Punjab
74.19502772,32.12472084,Jinnah Park,G.T.RdNear Markaz-e-Sanat,",",Gujranwala,Gujranwala District,Punjab
74.19507835,32.12624872,Pak Punjab Fans,G.T. Rd ,",",Gujranwala,Gujranwala District,Punjab
74.19473771,32.12647133,Ortho Tech,N5 Kangniwala ,",",Gujranwala,Gujranwala District,Punjab
74.1949543,32.12828681,g seo slution,G T road,",",Gujranwala,Gujranwala District,Punjab
74.19397227,32.12861532,Alfalah Bank,G T road Markaz-e-Sanat,",",Gujranwala,Gujranwala District,Punjab
74.1941788,32.12879249,PSO Fuel Station,G.T. Rd  Markaz-e-Sanat,",",Gujranwala,Gujranwala District,Punjab
74.19344489,32.12869794,Faisal Sanitary Fittings,G.T. Rd  Markaz-e-Sanat,",",Gujranwala,Gujranwala District,Punjab
74.19005357,32.12765903,Markaz-e-Sanat,Rana Colony ,",",Gujranwala,Gujranwala District,Punjab
74.19502236,32.13084585,Taj Mahal Marriage Hall,G.T. Rd Rana Colony ,",",Gujranwala,Gujranwala District,Punjab
74.19447351,32.13136855,Tharparkar Filling Station,G.T. Rd ,",",Gujranwala,Gujranwala District,Punjab
74.1949657,32.13221236,Tata fans A-Haq & Sons,G.T Road near total petrol pump,",",Gujranwala,Gujranwala District,Punjab
74.19303015,32.13326882,Usmania Restaurant,G.T. Rd ,",",Gujranwala,Gujranwala District,Punjab
74.19442724,32.13355416,Standard Chartered Bank,G.T. Rd,",",Gujranwala,Gujranwala District,Punjab
74.19464853,32.13385738,Anwar Industries,G.T. Rd ,",",Gujranwala,Gujranwala District,Punjab
74.19489395,32.13370861,Steel Castings & Engineering Works,G.T. Rd ,",",Gujranwala,Gujranwala District,Punjab
74.19449832,32.13414924,Warid Telecom,G.T. Rd ,",",Gujranwala,Gujranwala District,Punjab
74.19303484,32.13451634,Zinco Cine Max,Main G.T Road Near MCB Towr Branch ,",",Gujranwala,Gujranwala District,Punjab
74.19308111,32.13434997,Zinco Cinema,Main G.T Road Near MCB Towr Branch ,",",Gujranwala,Gujranwala District,Punjab
74.19254836,32.13531101,MCB Tower,G.T. Rd Mian Sansi,",",Gujranwala,Gujranwala District,Punjab
74.19798519,32.13390451,Jamia Masjid Bhar e Madina,Near Siddique Colony ,",",Gujranwala,Gujranwala District,Punjab
74.19256713,32.13748176,Citizen Int'l Plastic Ind.(PVT)Ltd.,G.T. Road ,",",Gujranwala,Gujranwala District,Punjab
74.19213865,32.13849813,Haroon Textile Industries,G.T. Road ,",",Gujranwala,Gujranwala District,Punjab
74.18585625,32.138987,Faysal Bank,Sheikhupura Rd ,",",Gujranwala,Gujranwala District,Punjab
74.18670047,32.14024353,Nafees Marble,Bajwa Rd,",",Gujranwala,Gujranwala District,Punjab
74.19426665,32.13874143,New Alkaram Textile and Dying Industry,G.T. Rd ,",",Gujranwala,Gujranwala District,Punjab
74.19222984,32.13957751,Mughal Complex,G.T. Rd ,",",Gujranwala,Gujranwala District,Punjab
74.19219498,32.13976317,Shalimar Marriage Hall,G.T. Rd ,",",Gujranwala,Gujranwala District,Punjab
74.19126425,32.13989604,Munawer Marble,Near G.T. Rd ,",",Gujranwala,Gujranwala District,Punjab
74.1919338,32.14053849,Muslim Crockery Store,Near G.T. Rd ,",",Gujranwala,Gujranwala District,Punjab
74.19207294,32.14086298,Pak Pipe Industries,G.T. Rd ,",",Gujranwala,Gujranwala District,Punjab
74.19197403,32.14116078,GT Suzuki Motors,G.T. Rd ,",",Gujranwala,Gujranwala District,Punjab
74.19289604,32.14332004,Ghulam Dastgir Fuel Station,G.T. Rd Wapda Hospital ,",",Gujranwala,Gujranwala District,Punjab
74.19545989,32.14071309,Pakistan Textile Printing Mills,Nazir Colony ,",",Gujranwala,Gujranwala District,Punjab
74.19660587,32.14027078,Noori Masjid,Mohallah salamat pura near faisal road ,",",Gujranwala,Gujranwala District,Punjab
74.19390287,32.14388412,Wapda Hospital Gujranwala,",",",",Gujranwala,Gujranwala District,Punjab
74.19216279,32.14416119,Saarhad Miran Shah,G.T Rd Near Government Higher Secondary School,",",Gujranwala,Gujranwala District,Punjab
74.18876644,32.14495946,Vegitable & Fruit Market,Shekhupura Road Near Gov. High Secondary School,",",Gujranwala,Gujranwala District,Punjab
74.18674741,32.1448743,Mini Stadium,In between of Sheikhupura and Muslim Road,",",Gujranwala,Gujranwala District,Punjab
74.19014074,32.14694177,Sheikhupura Mor,",",",",Gujranwala,Gujranwala District,Punjab
74.18906886,32.14707491,RASHID SEEDS,Jilani Building Sheikhupura Mor,",",Gujranwala,Gujranwala District,Punjab
74.19119619,32.14773434,Sheikhupura Mor Bus Stop,",",",",Gujranwala,Gujranwala District,Punjab
74.19261675,32.14769205,Muncipal Corporation,Near Sheikhupura Mor Bus Stop,",",Gujranwala,Gujranwala District,Punjab
74.19158645,32.15042994,WASA Sewage Pump Station,G.T. Rd ,",",Gujranwala,Gujranwala District,Punjab
74.19133432,32.15151543,Iqbal Park,G.T. Rd ,",",Gujranwala,Gujranwala District,Punjab
74.19022389,32.15280187,Bahoo Traders,21st Office 3rd Floor G T Road Trade Center ,",",Gujranwala,Gujranwala District,Punjab
74.19040494,32.15279847,SEO training,4-Second Floor ZR Center Opp: Destagir fuel PumpG.T Road ,",",Gujranwala,Gujranwala District,Punjab
74.19039287,32.15289157,Trade Center Gujranwala,G T Road ,",",Gujranwala,Gujranwala District,Punjab
74.19031508,32.15303009,Telenor Franchise,G.T. Rd  ,",",Gujranwala,Gujranwala District,Punjab
74.18913826,32.15571929,Sheranwala Bagh,G.T. Rd ,",",Gujranwala,Gujranwala District,Punjab
74.19096887,32.15700794,Satellite Town Police Station,Pasrur Rd ,",",Gujranwala,Gujranwala District,Punjab
74.19253059,32.15659183,Zamindar Travels,Pasrur Rd ,",",Gujranwala,Gujranwala District,Punjab
74.19018667,32.15900589,Kashmir Mehal Cinema,Sialkot road Near Gujranwala Flyover Sialkot Adda,",",Gujranwala,Gujranwala District,Punjab
74.1904626,32.15921905,Sialkot Adda,Sialkot road Near Gujranwala Flyover,",",Gujranwala,Gujranwala District,Punjab
74.19110633,32.15938822,Daska Vans Station,Sialkot road Near Gujranwala Flyover,",",Gujranwala,Gujranwala District,Punjab
74.19133499,32.16015854,Civil Defence Offices,Sialkot road ,",",Gujranwala,Gujranwala District,Punjab
74.19207059,32.1605928,Police Lane Ground,Sialkot road ,",",Gujranwala,Gujranwala District,Punjab
74.18850593,32.16025675,Allah Rakha Restaurant,G.T. Rd ,",",Gujranwala,Gujranwala District,Punjab
74.18847375,32.16035325,BISMILLAH Restaurant,G.T. Rd,",",Gujranwala,Gujranwala District,Punjab
74.18830879,32.16089139,Taxi Stand,G.T. Rd,",",Gujranwala,Gujranwala District,Punjab
74.18793194,32.16093681,Meezan Bank Ltd.,Near Chowk Chashma Dal Bazar Gujranwala Gondlanwala Rd,",",Gujranwala,Gujranwala District,Punjab
74.18812104,32.1615635,Pakistan Post,G.T. Rd ,",",Gujranwala,Gujranwala District,Punjab
74.18745719,32.16157939,Dollar East Currency Exchange,Near Daal Bazar,",",Gujranwala,Gujranwala District,Punjab
74.18751754,32.16168384,Wallstreet Exchange Company Bank Square Branch,Shop #2 Bank Square Near MCB,",",Gujranwala,Gujranwala District,Punjab
74.18794267,32.16205509,PTCL Exchange,G.T. Rd Fly Over,",",Gujranwala,Gujranwala District,Punjab
74.18756984,32.16235708,Car Park,G.T. Rd ,",",Gujranwala,Gujranwala District,Punjab
74.18769322,32.16261139,Rescue 1122,G.T. Rd ,",",Gujranwala,Gujranwala District,Punjab
74.18751553,32.16356901,Japan Photo Studio,Gondlanwala Rd ,",",Gujranwala,Gujranwala District,Punjab
74.18830678,32.16435008,Landa Bazar,G.T. Rd Near Hospital Road,",",Gujranwala,Gujranwala District,Punjab
74.18886468,32.16425472,Usmania Mosque, Near Hospital Road,",",Gujranwala,Gujranwala District,Punjab
74.19001736,32.16443239,Mahboob Elahi Tour and Travels,Hospital Road,",",Gujranwala,Gujranwala District,Punjab
74.18719433,32.16579471,Askari Bank,G.T. Rd ,",",Gujranwala,Gujranwala District,Punjab
74.18697707,32.16577995,Nishat Cinema,G.T. Rd ,",",Gujranwala,Gujranwala District,Punjab
74.18690935,32.16630728,Soneri Bank,Model Town,",",Gujranwala,Gujranwala District,Punjab
74.18711051,32.16650481,Wallstreet Exchange Company GT Road Branch,Chowni Road G.T. Rd ,",",Gujranwala,Gujranwala District,Punjab
74.18658212,32.16761281,Deen Plaza,G.T. Rd ,",",Gujranwala,Gujranwala District,Punjab
74.18546364,32.16805555,Grain Market [Galla Mandi],G.T. Rd ,",",Gujranwala,Gujranwala District,Punjab
74.18603763,32.16840975,Bank Alfalah,Model Town ,",",Gujranwala,Gujranwala District,Punjab
74.18732241,32.16854597,United bank,Bukhari road,",",Gujranwala,Gujranwala District,Punjab
74.1869764,32.17044632,MCB Ghallamandi,Service Rd Gujranwala,",",Gujranwala,Gujranwala District,Punjab
74.18834165,32.18454898,HFC [Hilal Fried Chicks],Jinnah Rd ,",",Gujranwala,Gujranwala District,Punjab
74.18815121,32.18466021,Pixel Managers,Suite# 1 Shamsi Chowk Sui Gas Road,",",Gujranwala,Gujranwala District,Punjab
74.20628496,32.06683949,Gondal CNG,Eminabad More Pakistan,",",Gujranwala,Gujranwala District,Punjab
74.20586519,32.06981477,Hyper Net Tower,N5 ,",",Gujranwala,Gujranwala District,Punjab
74.20444965,32.07163024,Baba Farid CNG,N5 ,",",Gujranwala,Gujranwala District,Punjab
74.20454152,32.07536164,Al-Rahmat CNG,N5 Near Attawa Road,",",Gujranwala,Gujranwala District,Punjab
74.20418143,32.07737359,Attawa Bus Stop,N5,",",Gujranwala,Gujranwala District,Punjab
74.20270588,32.07755171,PEPSI Cola,N5 Opposite  Attawa Bus Stop,",",Gujranwala,Gujranwala District,Punjab
74.20426056,32.08050307,Electro Heat Pvt Ltd,Gujranwala-Lahore G.T. Road Attawa N5,",",Gujranwala,Gujranwala District,Punjab
74.20380928,32.08184903,Marian Hotel,G.T. Road Attawa,",",Gujranwala,Gujranwala District,Punjab
74.20239374,32.08317566,Qudous CNG,N5,",",Gujranwala,Gujranwala District,Punjab
74.20380726,32.08184619,Marian Hotel,G.T. Road Attawa,",",Gujranwala,Gujranwala District,Punjab
74.20331642,32.08476645,Allama Iqbal Memorial Hospital,N5,",",Gujranwala,Gujranwala District,Punjab
74.20596845,32.08347848,Goraya Badminton Club Attawa,",",",",Gujranwala,Gujranwala District,Punjab
74.19947952,32.08657196,Allama Iqbal Hospital,",",",",Gujranwala,Gujranwala District,Punjab
74.20114651,32.08868194,Makkah CNG,N5 Opposite Marshal Tiles Industries,",",Gujranwala,Gujranwala District,Punjab
74.20435779,32.08831892,Marshal Tiles Industries,9-10 KM Lahore Side G.T. Road,",",Gujranwala,Gujranwala District,Punjab
74.2024333,32.0905743,Toyota Motors,N5Opposite Jalil Town,",",Gujranwala,Gujranwala District,Punjab
74.201974,32.091645,Four Star CNG,Near N5Chand Da Qila,",",Gujranwala,Gujranwala District,Punjab
74.20185294,32.09123357,Shahbaz Tikka Shop,Near N5 Four Star CNG Chand Da Qila,",",Gujranwala,Gujranwala District,Punjab
74.20173995,32.09217291,Raheem Tikka,N5 Chan Da Qila,",",Gujranwala,Gujranwala District,Punjab
74.19954188,32.09233539,Zainab Masjid,Street #1 Faisal Colony,",",Gujranwala,Gujranwala District,Punjab
74.20072876,32.09404304,Chan Da Qila,N-5,",",Gujranwala,Gujranwala District,Punjab
74.19720501,32.09761447,Masjid Siddiqia,N5Umer Farooq Colony,",",Gujranwala,Gujranwala District,Punjab
74.20109019,32.09890735,Al Sayyad Pvt Ltd,G.T. Road,",",Gujranwala,Gujranwala District,Punjab
74.20169301,32.10017465,Banks,G.T. Road Ghiusia Flyover,",",Gujranwala,Gujranwala District,Punjab
74.2016957,32.10137775,Hospital,G.T. Road Ghiusia Flyover,",",Gujranwala,Gujranwala District,Punjab
74.20198672,32.10206847,Ghausia Flyover,",",",",Gujranwala,Gujranwala District,Punjab
74.20371808,32.10025759,Banquet Hall,Ghiusia Flyover,",",Gujranwala,Gujranwala District,Punjab
74.20334894,32.10090373,Gymnasium,Ghiusia Flyover,",",Gujranwala,Gujranwala District,Punjab
74.20307569,32.10216277,Graveyard,G. Magnolia Park near Theri Sansi Train Station,",",Gujranwala,Gujranwala District,Punjab
74.204452,32.10225223,Theri Sansi Train Station,",",",",Gujranwala,Gujranwala District,Punjab
74.20004848,32.10428631,Shell Petrol Pump,G.T. Rd ,",",Gujranwala,Gujranwala District,Punjab
74.19867318,32.1050588,Haji Murad Eye Trust Hospital,G.T. Rd ,",",Gujranwala,Gujranwala District,Punjab
74.19781353,32.10729275,Al Moin Banquet Marquee,Main G T Road near upper cheenab canal,",",Gujranwala,Gujranwala District,Punjab